{
  "type": "FeatureCollection",
  "name": "Tuzobus Troncal 2-5",
  "features": [
    {
      "type": "Feature",
      "properties": {
        "routeId": "rutashidalgo-tbtroncal1-2-5",
        "externalId": "TBTroncal1-2-5",
        "name": "Tuzobus Troncal 2-5",
        "origin": "Tuzobus Troncal 2-5",
        "destination": "Tuzobus Troncal 2-5",
        "source": "rutashidalgo",
        "sourceLabel": "Rutas Hidalgo",
        "sourceUrl": "https://rutashidalgo.com/",
        "routeType": "tuzobus_troncal",
        "color": "#0e9e35",
        "fare": "Por confirmar",
        "frequency": "N/A",
        "schedule": "Por confirmar",
        "status": "preliminary",
        "updatedAt": "2026-06-06",
        "featureIndex": 0
      },
      "geometry": {
        "coordinates": [
          [
            -98.80351213429459,
            20.011050909131896
          ],
          [
            -98.80370945172503,
            20.01140185337674
          ],
          [
            -98.80414636889287,
            20.011514420233766
          ],
          [
            -98.80452338612594,
            20.01151110944471
          ],
          [
            -98.8110267852443,
            20.022619457572546
          ],
          [
            -98.80654424300232,
            20.026492082895857
          ],
          [
            -98.79661779439718,
            20.038089765449314
          ],
          [
            -98.79277625557545,
            20.044000088366815
          ],
          [
            -98.7717430173269,
            20.084908448382762
          ],
          [
            -98.77078192170063,
            20.086987212855547
          ],
          [
            -98.77076203704851,
            20.087978987296793
          ],
          [
            -98.77101059518984,
            20.09022930803897
          ],
          [
            -98.77039417100023,
            20.093244676260497
          ],
          [
            -98.76976780448399,
            20.094360518020565
          ],
          [
            -98.76347450976436,
            20.100276071514173
          ],
          [
            -98.75111397823605,
            20.112369799313626
          ],
          [
            -98.74657710146884,
            20.115900910514483
          ],
          [
            -98.745880485628,
            20.115581568451177
          ],
          [
            -98.74332145171957,
            20.115750126505915
          ],
          [
            -98.73942754224777,
            20.1183791808878
          ],
          [
            -98.73862524023397,
            20.118950360676536
          ],
          [
            -98.73801323374136,
            20.119495184701478
          ],
          [
            -98.73623581996833,
            20.12072896029585
          ],
          [
            -98.7360067546616,
            20.120748875611284
          ],
          [
            -98.73594312540968,
            20.120836502968373
          ],
          [
            -98.73585404445711,
            20.12099184225336
          ],
          [
            -98.73460560134933,
            20.121880944791428
          ],
          [
            -98.73414707047448,
            20.122157394723388
          ],
          [
            -98.7331460354532,
            20.1223625576568
          ],
          [
            -98.73301900055198,
            20.122450825347713
          ],
          [
            -98.73298089008179,
            20.122586805206865
          ],
          [
            -98.73310714371857,
            20.1245717351799
          ],
          [
            -98.73207317743874,
            20.12580773114584
          ],
          [
            -98.73142312356195,
            20.127747821791843
          ],
          [
            -98.73129149153785,
            20.12793034677044
          ],
          [
            -98.7308316002024,
            20.129439158763176
          ],
          [
            -98.73113874159284,
            20.129492126590392
          ],
          [
            -98.73138320106693,
            20.12924200058167
          ]
        ],
        "type": "LineString"
      }
    }
  ]
}
