{
  "type": "FeatureCollection",
  "name": "Pachuca - Zempoala",
  "features": [
    {
      "type": "Feature",
      "properties": {
        "routeId": "rutashidalgo-pachuca-zempoala",
        "externalId": "Pachuca-Zempoala",
        "name": "Pachuca - Zempoala",
        "origin": "Pachuca",
        "destination": "Zempoala",
        "source": "rutashidalgo",
        "sourceLabel": "Rutas Hidalgo",
        "sourceUrl": "https://rutashidalgo.com/",
        "routeType": "combi",
        "color": "#0c7b2a",
        "fare": "Por confirmar",
        "frequency": "N/A",
        "schedule": "Por confirmar",
        "status": "preliminary",
        "updatedAt": "2026-06-06",
        "featureIndex": 0
      },
      "geometry": {
        "coordinates": [
          [
            -98.74887998884371,
            20.10624091774112
          ],
          [
            -98.74873451981905,
            20.106242543975497
          ],
          [
            -98.74871200675625,
            20.105850621031323
          ],
          [
            -98.75061224411124,
            20.106149563363985
          ],
          [
            -98.75064571834442,
            20.106017539564334
          ],
          [
            -98.74734515897435,
            20.105508303863274
          ],
          [
            -98.74699033210446,
            20.10514995182065
          ],
          [
            -98.7438882301905,
            20.06037129880626
          ],
          [
            -98.74318729402596,
            20.058099553163885
          ],
          [
            -98.70672342136007,
            19.99265438765086
          ],
          [
            -98.69432590997852,
            19.959071264989333
          ],
          [
            -98.68081814886412,
            19.92297475370944
          ],
          [
            -98.68056529752099,
            19.92224385061475
          ],
          [
            -98.67981415705455,
            19.920535708656942
          ],
          [
            -98.67890829372747,
            19.91786162361545
          ]
        ],
        "type": "LineString"
      }
    }
  ]
}
