{
  "type": "FeatureCollection",
  "name": "Chavarria - Centro",
  "features": [
    {
      "type": "Feature",
      "properties": {
        "routeId": "rutashidalgo-chavarria-centro",
        "externalId": "Chavarria-Centro",
        "name": "Chavarria - Centro",
        "origin": "Chavarria",
        "destination": "Centro",
        "source": "rutashidalgo",
        "sourceLabel": "Rutas Hidalgo",
        "sourceUrl": "https://rutashidalgo.com/",
        "routeType": "combi",
        "color": "#0e9e35",
        "fare": "Por confirmar",
        "frequency": "N/A",
        "schedule": "Por confirmar",
        "status": "preliminary",
        "updatedAt": "2026-06-06",
        "featureIndex": 0
      },
      "geometry": {
        "coordinates": [
          [
            -98.7227336,
            20.0432151
          ],
          [
            -98.7240997,
            20.0438663
          ],
          [
            -98.7241824,
            20.0439847
          ],
          [
            -98.7243395,
            20.0439925
          ],
          [
            -98.7244211,
            20.0439081
          ],
          [
            -98.7244243,
            20.0437497
          ],
          [
            -98.7251415,
            20.0425116
          ],
          [
            -98.7253451,
            20.0423834
          ],
          [
            -98.7255669,
            20.0423959
          ],
          [
            -98.7268902,
            20.0428668
          ],
          [
            -98.727062,
            20.0428596
          ],
          [
            -98.7280651,
            20.0426749
          ],
          [
            -98.7282968,
            20.0426603
          ],
          [
            -98.7285308,
            20.0427141
          ],
          [
            -98.7311642,
            20.043757
          ],
          [
            -98.7311986,
            20.0438591
          ],
          [
            -98.7312745,
            20.0439279
          ],
          [
            -98.731383,
            20.0439428
          ],
          [
            -98.7314606,
            20.0439212
          ],
          [
            -98.7315312,
            20.0438649
          ],
          [
            -98.7315612,
            20.0437398
          ],
          [
            -98.7315638,
            20.0436121
          ],
          [
            -98.7316526,
            20.0433123
          ],
          [
            -98.731944,
            20.0427207
          ],
          [
            -98.7322729,
            20.0422812
          ],
          [
            -98.7325833,
            20.0419539
          ],
          [
            -98.7330091,
            20.0416276
          ],
          [
            -98.7333117,
            20.0414718
          ],
          [
            -98.73364107414366,
            20.04134913367713
          ],
          [
            -98.7396925,
            20.0522156
          ],
          [
            -98.7401764,
            20.0531374
          ],
          [
            -98.7426894,
            20.0575792
          ],
          [
            -98.7430135,
            20.0582
          ],
          [
            -98.7432302,
            20.0587408
          ],
          [
            -98.7434259,
            20.0593356
          ],
          [
            -98.7436779,
            20.0602824
          ],
          [
            -98.7438285,
            20.061244
          ],
          [
            -98.7457422,
            20.0887107
          ],
          [
            -98.745661,
            20.0889166
          ],
          [
            -98.7456005,
            20.0889999
          ],
          [
            -98.7455193,
            20.0890709
          ],
          [
            -98.745404,
            20.089117
          ],
          [
            -98.7452907,
            20.089133
          ],
          [
            -98.745132,
            20.0891046
          ],
          [
            -98.7450016,
            20.0890408
          ],
          [
            -98.7447976,
            20.0887746
          ],
          [
            -98.7446691,
            20.0885404
          ],
          [
            -98.7446671,
            20.0883606
          ],
          [
            -98.74473316121691,
            20.088190527810056
          ],
          [
            -98.7448352,
            20.0880909
          ],
          [
            -98.74497263782223,
            20.088040589031635
          ],
          [
            -98.7451073,
            20.0880199
          ],
          [
            -98.74523388502735,
            20.088020142822373
          ],
          [
            -98.7509537,
            20.090459
          ],
          [
            -98.7512211,
            20.0906318
          ],
          [
            -98.7537107,
            20.0916146
          ],
          [
            -98.754004,
            20.0917657
          ],
          [
            -98.7579044,
            20.0954302
          ],
          [
            -98.7590929,
            20.0965341
          ],
          [
            -98.7591625,
            20.096794
          ],
          [
            -98.7591711,
            20.0969587
          ],
          [
            -98.7590763,
            20.0971773
          ],
          [
            -98.75895030430894,
            20.09730244696061
          ],
          [
            -98.75789805861903,
            20.098140689634903
          ],
          [
            -98.756111,
            20.1004331
          ],
          [
            -98.754501,
            20.1031957
          ],
          [
            -98.7540856,
            20.1049236
          ],
          [
            -98.75365707051076,
            20.106508853735605
          ],
          [
            -98.7468970785469,
            20.10544173138838
          ],
          [
            -98.74724990675792,
            20.110890759749353
          ],
          [
            -98.7472999,
            20.1116912
          ],
          [
            -98.7472624,
            20.1120061
          ],
          [
            -98.7472079,
            20.1124439
          ],
          [
            -98.7471317,
            20.1128997
          ],
          [
            -98.7469718,
            20.1133404
          ],
          [
            -98.7469054,
            20.1133832
          ],
          [
            -98.746833,
            20.113401
          ],
          [
            -98.745058,
            20.1128965
          ],
          [
            -98.7448507,
            20.1126975
          ],
          [
            -98.7471451,
            20.1112926
          ],
          [
            -98.747177,
            20.1112547
          ],
          [
            -98.7471813,
            20.1112128
          ],
          [
            -98.7471728,
            20.1111091
          ],
          [
            -98.7471579,
            20.1109815
          ],
          [
            -98.7471239,
            20.1109456
          ],
          [
            -98.747064,
            20.1109512
          ],
          [
            -98.7452003,
            20.112097
          ],
          [
            -98.7450663,
            20.1122259
          ],
          [
            -98.7439916,
            20.1129044
          ],
          [
            -98.7430585,
            20.1133413
          ],
          [
            -98.7421124,
            20.1137418
          ],
          [
            -98.7396347,
            20.1148353
          ],
          [
            -98.7374185,
            20.1158033
          ],
          [
            -98.7363913,
            20.1164482
          ],
          [
            -98.7355246077046,
            20.11720589306097
          ],
          [
            -98.7349655,
            20.1178945
          ],
          [
            -98.7344584,
            20.1188267
          ],
          [
            -98.7341456,
            20.1195095
          ],
          [
            -98.7339506,
            20.1202199
          ],
          [
            -98.73374714970743,
            20.120987170325677
          ],
          [
            -98.73443350152391,
            20.121633814869995
          ],
          [
            -98.73487058113982,
            20.122254820258135
          ]
        ],
        "type": "LineString"
      }
    }
  ]
}
