{
  "type": "FeatureCollection",
  "name": "Pachuca - Margaritas",
  "features": [
    {
      "type": "Feature",
      "properties": {
        "routeId": "rutashidalgo-pachuca-margaritas",
        "externalId": "Pachuca-Margaritas",
        "name": "Pachuca - Margaritas",
        "origin": "Pachuca",
        "destination": "Margaritas",
        "source": "rutashidalgo",
        "sourceLabel": "Rutas Hidalgo",
        "sourceUrl": "https://rutashidalgo.com/",
        "routeType": "combi",
        "color": "#ef792d",
        "fare": "Por confirmar",
        "frequency": "N/A",
        "schedule": "Por confirmar",
        "status": "preliminary",
        "updatedAt": "2026-06-06",
        "featureIndex": 0
      },
      "geometry": {
        "coordinates": [
          [
            -98.75064571834442,
            20.106017539564334
          ],
          [
            -98.74734515897435,
            20.105508303863274
          ],
          [
            -98.74699033210446,
            20.10514995182065
          ],
          [
            -98.7438882301905,
            20.06037129880626
          ],
          [
            -98.74318729402596,
            20.058099553163885
          ],
          [
            -98.70977057058613,
            19.998124020006287
          ],
          [
            -98.70981673876418,
            19.997953953013948
          ],
          [
            -98.70991092184754,
            19.997863713311872
          ],
          [
            -98.7111420655646,
            19.99715881113059
          ],
          [
            -98.71143393218878,
            19.99689409362506
          ],
          [
            -98.71160198435689,
            19.99663725568223
          ],
          [
            -98.71172758204402,
            19.99631008623453
          ],
          [
            -98.71174420258805,
            19.996072336731615
          ],
          [
            -98.71174050913342,
            19.995881442709575
          ],
          [
            -98.71182215093808,
            19.995544146516977
          ],
          [
            -98.71198835637948,
            19.99524565658082
          ],
          [
            -98.71222361674302,
            19.995019369709084
          ],
          [
            -98.71245261090588,
            19.99486491807764
          ],
          [
            -98.71291613941352,
            19.99467055176339
          ],
          [
            -98.71312334539772,
            19.994623616738266
          ],
          [
            -98.7169845693192,
            19.994203917464304
          ],
          [
            -98.71731069569695,
            19.99413271309558
          ],
          [
            -98.71804569309089,
            19.993933139610064
          ],
          [
            -98.71847544299928,
            19.993888270338587
          ],
          [
            -98.71891127059963,
            19.99391083083883
          ],
          [
            -98.71939384207705,
            19.994033747096992
          ],
          [
            -98.71977057440995,
            19.994240262133218
          ],
          [
            -98.72027913786035,
            19.994611801652553
          ],
          [
            -98.72191475549337,
            19.99600886760446
          ],
          [
            -98.72200893857617,
            19.996217115446896
          ],
          [
            -98.72203831972023,
            19.996529330236
          ],
          [
            -98.722171284073,
            19.996801786874926
          ],
          [
            -98.7223684015291,
            19.9970036238617
          ],
          [
            -98.72351337354225,
            19.997992791491683
          ],
          [
            -98.7238734847102,
            19.998305159083046
          ],
          [
            -98.72420774231911,
            19.998539434470004
          ]
        ],
        "type": "LineString"
      }
    }
  ]
}
