{
  "type": "FeatureCollection",
  "name": "Ruta de la Unidad",
  "features": [
    {
      "type": "Feature",
      "properties": {
        "routeId": "rutashidalgo-delaunidad",
        "externalId": "DeLaUnidad",
        "name": "Ruta de la Unidad",
        "origin": "Ruta de la Unidad",
        "destination": "Ruta de la Unidad",
        "source": "rutashidalgo",
        "sourceLabel": "Rutas Hidalgo",
        "sourceUrl": "https://rutashidalgo.com/",
        "routeType": "combi",
        "color": "#df210b",
        "fare": "Por confirmar",
        "frequency": "N/A",
        "schedule": "Por confirmar",
        "status": "preliminary",
        "updatedAt": "2026-06-06",
        "featureIndex": 0
      },
      "geometry": {
        "coordinates": [
          [
            -98.67009200368601,
            20.06724273555463
          ],
          [
            -98.67011806748948,
            20.067020518842043
          ],
          [
            -98.6799838164774,
            20.066375388752988
          ],
          [
            -98.70476248444788,
            20.073252239996805
          ],
          [
            -98.70584422025573,
            20.074014983033862
          ],
          [
            -98.70996420793858,
            20.078250486708512
          ],
          [
            -98.7108145878124,
            20.079710208524915
          ],
          [
            -98.7122573080504,
            20.07622497334495
          ],
          [
            -98.71626854675283,
            20.069091128980176
          ],
          [
            -98.71652615937771,
            20.068923603618202
          ],
          [
            -98.7164415732941,
            20.068763012989507
          ],
          [
            -98.71631739372457,
            20.068784988559003
          ],
          [
            -98.71539599197929,
            20.056973959769252
          ],
          [
            -98.71699577377214,
            20.047008051102083
          ],
          [
            -98.71768580747424,
            20.042155350019172
          ],
          [
            -98.71734079062249,
            20.039110283631686
          ],
          [
            -98.71706477714149,
            20.038802360623663
          ],
          [
            -98.7149946760347,
            20.03398895935601
          ],
          [
            -98.71582323558364,
            20.03383392079877
          ],
          [
            -98.71622062208334,
            20.03181212356651
          ],
          [
            -98.71708875874394,
            20.031955717978065
          ],
          [
            -98.72864109226107,
            20.032352756038208
          ],
          [
            -98.7397566431183,
            20.05230214755528
          ],
          [
            -98.74150541343111,
            20.055482805467236
          ],
          [
            -98.7418588656367,
            20.05527373868611
          ],
          [
            -98.74297167873942,
            20.054040775082456
          ],
          [
            -98.74332549623898,
            20.05275419403894
          ],
          [
            -98.74345104438399,
            20.05270058626624
          ],
          [
            -98.75133604647311,
            20.054899829452964
          ],
          [
            -98.75271476871593,
            20.05533414492068
          ],
          [
            -98.75291464868361,
            20.055373272380862
          ],
          [
            -98.75933891792,
            20.05729958047759
          ],
          [
            -98.76006729840259,
            20.05824083754277
          ],
          [
            -98.77316765222587,
            20.061064174620356
          ],
          [
            -98.77423373101804,
            20.061245784345303
          ],
          [
            -98.77490441253426,
            20.06127517342152
          ],
          [
            -98.77696326976219,
            20.059057293443885
          ],
          [
            -98.77713757835605,
            20.058780537976276
          ],
          [
            -98.78044825807079,
            20.055364529435252
          ],
          [
            -98.78075238057305,
            20.05518732058539
          ],
          [
            -98.78113033064982,
            20.05514101202779
          ],
          [
            -98.78145194034305,
            20.055290963498635
          ],
          [
            -98.78535187313153,
            20.057417068972185
          ],
          [
            -98.78881204001658,
            20.06485451338115
          ],
          [
            -98.79259502017375,
            20.073038223512313
          ],
          [
            -98.79239904950504,
            20.073306960518224
          ],
          [
            -98.7876050635691,
            20.077775226014452
          ]
        ],
        "type": "LineString"
      }
    }
  ]
}
