{
  "type": "FeatureCollection",
  "name": "Providencia - Tilcuautla por Colosio",
  "features": [
    {
      "type": "Feature",
      "properties": {
        "routeId": "rutashidalgo-providencia-tilcuautla-colosio",
        "externalId": "Providencia-Tilcuautla_Colosio",
        "name": "Providencia - Tilcuautla por Colosio",
        "origin": "Providencia",
        "destination": "Tilcuautla por Colosio",
        "source": "rutashidalgo",
        "sourceLabel": "Rutas Hidalgo",
        "sourceUrl": "https://rutashidalgo.com/",
        "routeType": "combi",
        "color": "#1b3ddc",
        "fare": "Por confirmar",
        "frequency": "N/A",
        "schedule": "Por confirmar",
        "status": "preliminary",
        "updatedAt": "2026-06-06",
        "featureIndex": 0
      },
      "geometry": {
        "coordinates": [
          [
            -98.72273779679267,
            20.043206958291535
          ],
          [
            -98.72378592211444,
            20.043753803796292
          ],
          [
            -98.72410736966327,
            20.04387123958047
          ],
          [
            -98.7241683851698,
            20.043976092885387
          ],
          [
            -98.72426809343744,
            20.044009645928043
          ],
          [
            -98.72436184897258,
            20.043974694841637
          ],
          [
            -98.72441691174706,
            20.043895006336356
          ],
          [
            -98.72442732902884,
            20.043799939292967
          ],
          [
            -98.72440947083177,
            20.04373283311085
          ],
          [
            -98.72465804709425,
            20.043314196341512
          ],
          [
            -98.72512248093163,
            20.04254371042802
          ],
          [
            -98.72524451194563,
            20.042424875592772
          ],
          [
            -98.72538291297346,
            20.042375943576204
          ],
          [
            -98.72555897195475,
            20.042387128195898
          ],
          [
            -98.72682690395798,
            20.04285687491371
          ],
          [
            -98.72697125771786,
            20.042868059342027
          ],
          [
            -98.72821835484417,
            20.042658351178844
          ],
          [
            -98.7283984259821,
            20.04267512900546
          ],
          [
            -98.72938508775384,
            20.043035825270564
          ],
          [
            -98.73074059034319,
            20.043569448916386
          ],
          [
            -98.73115430524389,
            20.043753991040973
          ],
          [
            -98.73122573836942,
            20.04389938885045
          ],
          [
            -98.73137455667901,
            20.043953912567318
          ],
          [
            -98.73149063496051,
            20.043909175160238
          ],
          [
            -98.73155760319953,
            20.043802923765398
          ],
          [
            -98.7315516504675,
            20.043642148491514
          ],
          [
            -98.73165666313264,
            20.04332892459348
          ],
          [
            -98.73195979298315,
            20.042687022792094
          ],
          [
            -98.73246666633332,
            20.042059123289178
          ],
          [
            -98.73280955091883,
            20.04178602136234
          ],
          [
            -98.73316734352976,
            20.04153392685521
          ],
          [
            -98.7336468854548,
            20.04136119610837
          ],
          [
            -98.73395632085055,
            20.04193672630268
          ],
          [
            -98.73776287753755,
            20.04878578002696
          ],
          [
            -98.73973958952341,
            20.052275260597625
          ],
          [
            -98.73985493227768,
            20.052591446566524
          ],
          [
            -98.74150172378975,
            20.055491651720118
          ],
          [
            -98.7417280286395,
            20.055370610885845
          ],
          [
            -98.74284699666984,
            20.054189882198045
          ],
          [
            -98.74286084136892,
            20.054173923636355
          ],
          [
            -98.74298577211698,
            20.053986153846722
          ],
          [
            -98.74331683859846,
            20.052759776880663
          ],
          [
            -98.74346675547692,
            20.052706966187657
          ],
          [
            -98.74675190998303,
            20.053596633265812
          ],
          [
            -98.74924261128899,
            20.05435025582358
          ],
          [
            -98.75131021516383,
            20.05487248878444
          ],
          [
            -98.75156007665944,
            20.0549957120391
          ],
          [
            -98.75272817915071,
            20.055336042429303
          ],
          [
            -98.75447721397303,
            20.05583480128317
          ],
          [
            -98.75935682041232,
            20.057303536551913
          ],
          [
            -98.76009391182365,
            20.05824823106059
          ],
          [
            -98.77188496599929,
            20.060804746993497
          ],
          [
            -98.77209110173322,
            20.060828217210286
          ],
          [
            -98.7732711981174,
            20.061080625931467
          ],
          [
            -98.77429367492014,
            20.061249537519913
          ],
          [
            -98.77489985263283,
            20.061288834651933
          ],
          [
            -98.77699574484193,
            20.059011129040726
          ],
          [
            -98.77714753099247,
            20.05877011250314
          ],
          [
            -98.78046798082224,
            20.055316610713177
          ],
          [
            -98.78071335981406,
            20.055192740289584
          ],
          [
            -98.78097942452118,
            20.055146733034803
          ],
          [
            -98.78117533286311,
            20.055175332140493
          ],
          [
            -98.78138977361145,
            20.05524745207893
          ],
          [
            -98.78534065467198,
            20.057420970457898
          ],
          [
            -98.78552733274617,
            20.057759993892276
          ],
          [
            -98.78894326683817,
            20.065133847477213
          ],
          [
            -98.79263543758852,
            20.073147482671743
          ],
          [
            -98.79505870043698,
            20.07805710613829
          ],
          [
            -98.80223120875642,
            20.09341671531989
          ],
          [
            -98.80392855121929,
            20.09696415676838
          ],
          [
            -98.80467444154273,
            20.097907304648814
          ],
          [
            -98.8236049780532,
            20.115137984966836
          ],
          [
            -98.82506233278178,
            20.116524068791833
          ],
          [
            -98.8255434752409,
            20.117195419459662
          ],
          [
            -98.82575510233234,
            20.1176034878021
          ],
          [
            -98.82581654151666,
            20.118010095613045
          ],
          [
            -98.82571295751065,
            20.118430574586938
          ],
          [
            -98.82554633352756,
            20.118700389193975
          ],
          [
            -98.82534394631533,
            20.118866485273273
          ],
          [
            -98.82485471108691,
            20.11914630439405
          ],
          [
            -98.82267152425878,
            20.120096005813778
          ],
          [
            -98.82219185063039,
            20.120265093104152
          ],
          [
            -98.81151515674104,
            20.12485574628154
          ],
          [
            -98.81117254883326,
            20.124802195329778
          ],
          [
            -98.81104187362544,
            20.124697454051955
          ],
          [
            -98.8109813168218,
            20.124546327226213
          ],
          [
            -98.81100681442335,
            20.124377244564883
          ],
          [
            -98.81110083682884,
            20.12425903622352
          ],
          [
            -98.81124266723742,
            20.124200680174994
          ],
          [
            -98.81139087204603,
            20.124188709700405
          ],
          [
            -98.8115470448554,
            20.12426053253236
          ],
          [
            -98.81163788006036,
            20.124390711331685
          ],
          [
            -98.81168409446322,
            20.124576253341104
          ],
          [
            -98.81146965370847,
            20.12723346762408
          ],
          [
            -98.81152061730974,
            20.127406121436948
          ],
          [
            -98.81163183477179,
            20.12758707219038
          ],
          [
            -98.81262229920273,
            20.128888991226844
          ],
          [
            -98.81269147616287,
            20.129110918942857
          ],
          [
            -98.81271010088916,
            20.12931576791665
          ],
          [
            -98.81265156603567,
            20.12955559076397
          ],
          [
            -98.81254247835412,
            20.129760439155007
          ],
          [
            -98.81137828393551,
            20.13127448521989
          ],
          [
            -98.80992954690524,
            20.133179869486725
          ],
          [
            -98.80955754487694,
            20.13333069092755
          ],
          [
            -98.80893714147439,
            20.13417248454428
          ],
          [
            -98.80869196047882,
            20.134589275787917
          ],
          [
            -98.80855668701409,
            20.13508142498908
          ],
          [
            -98.8085144140564,
            20.13583552156402
          ],
          [
            -98.80843265604545,
            20.13962140105886
          ],
          [
            -98.80796765351042,
            20.1401611601363
          ],
          [
            -98.80726553889882,
            20.142571680132775
          ],
          [
            -98.80612416036614,
            20.145692229089562
          ]
        ],
        "type": "LineString"
      }
    }
  ]
}
