{
  "type": "FeatureCollection",
  "name": "Pachuca - UPP",
  "features": [
    {
      "type": "Feature",
      "properties": {
        "routeId": "rutashidalgo-pachuca-upp",
        "externalId": "Pachuca-UPP",
        "name": "Pachuca - UPP",
        "origin": "Pachuca",
        "destination": "UPP",
        "source": "rutashidalgo",
        "sourceLabel": "Rutas Hidalgo",
        "sourceUrl": "https://rutashidalgo.com/",
        "routeType": "combi",
        "color": "#8611e3",
        "fare": "Por confirmar",
        "frequency": "Cada que se llena la combi",
        "schedule": "Por confirmar",
        "status": "preliminary",
        "updatedAt": "2026-06-06",
        "featureIndex": 0
      },
      "geometry": {
        "coordinates": [
          [
            -98.74887998884371,
            20.10624091774112
          ],
          [
            -98.74873451981905,
            20.106242543975497
          ],
          [
            -98.74871200675625,
            20.105850621031323
          ],
          [
            -98.75061224411124,
            20.106149563363985
          ],
          [
            -98.75064571834442,
            20.106017539564334
          ],
          [
            -98.74734515897435,
            20.105508303863274
          ],
          [
            -98.74699033210446,
            20.10514995182065
          ],
          [
            -98.7438882301905,
            20.06037129880626
          ],
          [
            -98.74318729402596,
            20.058099553163885
          ],
          [
            -98.70672342136007,
            19.99265438765086
          ],
          [
            -98.6943257271441,
            19.959070609148228
          ],
          [
            -98.69454239084122,
            19.958573925543888
          ],
          [
            -98.69652968130296,
            19.957976522376782
          ],
          [
            -98.6964312119557,
            19.9576820270255
          ],
          [
            -98.69512425516547,
            19.958279431307673
          ],
          [
            -98.69234025816722,
            19.958430885555046
          ],
          [
            -98.69160621394289,
            19.958279431307673
          ],
          [
            -98.69155250338972,
            19.95858233965707
          ],
          [
            -98.69327124108642,
            19.958557097316955
          ],
          [
            -98.69382625013428,
            19.958759035925468
          ],
          [
            -98.69422012752301,
            19.959373264271363
          ],
          [
            -98.69492731647092,
            19.961300074662134
          ],
          [
            -98.6876054908715,
            19.972284064911236
          ],
          [
            -98.68571434985465,
            19.977430213090756
          ],
          [
            -98.68593553961917,
            19.97755221563048
          ],
          [
            -98.68572467235866,
            19.978251955976404
          ]
        ],
        "type": "LineString"
      }
    }
  ]
}
