{
  "type": "FeatureCollection",
  "name": "Providencia - Tilcuautla por San Fernando",
  "features": [
    {
      "type": "Feature",
      "properties": {
        "routeId": "rutashidalgo-providencia-tilcuautla-sanfernando",
        "externalId": "Providencia-Tilcuautla_SanFernando",
        "name": "Providencia - Tilcuautla por San Fernando",
        "origin": "Providencia",
        "destination": "Tilcuautla por San Fernando",
        "source": "rutashidalgo",
        "sourceLabel": "Rutas Hidalgo",
        "sourceUrl": "https://rutashidalgo.com/",
        "routeType": "combi",
        "color": "#1b3ddc",
        "fare": "Por confirmar",
        "frequency": "N/A",
        "schedule": "Por confirmar",
        "status": "preliminary",
        "updatedAt": "2026-06-06",
        "featureIndex": 0
      },
      "geometry": {
        "coordinates": [
          [
            -98.71812678711508,
            20.061164491827043
          ],
          [
            -98.71742461409691,
            20.061001943672878
          ],
          [
            -98.7171949935364,
            20.06196785234883
          ],
          [
            -98.71784392120708,
            20.06212414769216
          ],
          [
            -98.71722622462424,
            20.064607314332193
          ],
          [
            -98.71748886180667,
            20.068159790080216
          ],
          [
            -98.72356962651256,
            20.06780784593252
          ],
          [
            -98.72729148133762,
            20.06762068052332
          ],
          [
            -98.72801694919497,
            20.067711328575072
          ],
          [
            -98.72813342753635,
            20.06746126620746
          ],
          [
            -98.73078830881242,
            20.06722138094264
          ],
          [
            -98.73047943159354,
            20.065964594690143
          ],
          [
            -98.73096995360747,
            20.065279422318554
          ],
          [
            -98.73008041913225,
            20.064721996915452
          ],
          [
            -98.72913714070712,
            20.063586721441965
          ],
          [
            -98.73026356849743,
            20.062764666593836
          ],
          [
            -98.73089546480315,
            20.06165035250467
          ],
          [
            -98.73098971360969,
            20.06124366649958
          ],
          [
            -98.73279217291403,
            20.057529133003854
          ],
          [
            -98.73294229791385,
            20.057470680927494
          ],
          [
            -98.73727839567808,
            20.048760366536243
          ],
          [
            -98.73741821742557,
            20.04868204410316
          ],
          [
            -98.7376185550236,
            20.048698698746875
          ],
          [
            -98.73776215985079,
            20.048785302861617
          ],
          [
            -98.73973958952341,
            20.052275260597625
          ],
          [
            -98.73985493227768,
            20.052591446566524
          ],
          [
            -98.74150172378975,
            20.055491651720118
          ],
          [
            -98.7417280286395,
            20.055370610885845
          ],
          [
            -98.74284699666984,
            20.054189882198045
          ],
          [
            -98.74286084136892,
            20.054173923636355
          ],
          [
            -98.74298577211698,
            20.053986153846722
          ],
          [
            -98.74331683859846,
            20.052759776880663
          ],
          [
            -98.74346675547692,
            20.052706966187657
          ],
          [
            -98.74675190998303,
            20.053596633265812
          ],
          [
            -98.74924261128899,
            20.05435025582358
          ],
          [
            -98.75131021516383,
            20.05487248878444
          ],
          [
            -98.75156007665944,
            20.0549957120391
          ],
          [
            -98.75272817915071,
            20.055336042429303
          ],
          [
            -98.75447721397303,
            20.05583480128317
          ],
          [
            -98.75935682041232,
            20.057303536551913
          ],
          [
            -98.76009391182365,
            20.05824823106059
          ],
          [
            -98.77188496599929,
            20.060804746993497
          ],
          [
            -98.77209110173322,
            20.060828217210286
          ],
          [
            -98.77327169729953,
            20.061080521812755
          ],
          [
            -98.77331691533831,
            20.061148789289263
          ],
          [
            -98.77404351328887,
            20.061310741472283
          ],
          [
            -98.77410508938617,
            20.06143798949776
          ],
          [
            -98.77400246255758,
            20.061788885035142
          ],
          [
            -98.77274633228164,
            20.063628138078954
          ],
          [
            -98.77259387152652,
            20.064024524669733
          ],
          [
            -98.77134180241096,
            20.065753953434765
          ],
          [
            -98.76994330822687,
            20.067944326031764
          ],
          [
            -98.7653186139013,
            20.07573819342744
          ],
          [
            -98.76420859485115,
            20.077758642661664
          ],
          [
            -98.76392113873852,
            20.078775059923046
          ],
          [
            -98.7627290413307,
            20.08009321624239
          ],
          [
            -98.76171575547053,
            20.081329620902736
          ],
          [
            -98.76127611671001,
            20.08217132273947
          ],
          [
            -98.7598641999218,
            20.085188707266525
          ],
          [
            -98.7624935739441,
            20.086054208133945
          ],
          [
            -98.76340666983103,
            20.08653856966805
          ],
          [
            -98.76341512442278,
            20.08683236199971
          ],
          [
            -98.76269648414139,
            20.08767403427933
          ],
          [
            -98.76202324498169,
            20.088507497145542
          ],
          [
            -98.76088187512295,
            20.090278160872202
          ],
          [
            -98.76080483337567,
            20.09058810514088
          ],
          [
            -98.76089783388274,
            20.091024811984312
          ],
          [
            -98.76143892774171,
            20.092350805303795
          ],
          [
            -98.76155729202333,
            20.092747807108168
          ],
          [
            -98.7614809482809,
            20.093202531416424
          ],
          [
            -98.76081303554894,
            20.094139448964995
          ],
          [
            -98.76059229952317,
            20.094539035707797
          ],
          [
            -98.76052466279064,
            20.09486457271312
          ],
          [
            -98.76053311738237,
            20.09584117966962
          ],
          [
            -98.76046548116355,
            20.096246112713573
          ],
          [
            -98.76001738781164,
            20.09664310464389
          ],
          [
            -98.75951856691034,
            20.096944817837596
          ],
          [
            -98.76273613346982,
            20.10001408032663
          ],
          [
            -98.76283758856863,
            20.100387243789157
          ],
          [
            -98.7630489533573,
            20.100760406362937
          ],
          [
            -98.76341250079355,
            20.10097477594951
          ],
          [
            -98.76386904873716,
            20.10110974924295
          ],
          [
            -98.76529787709708,
            20.102419955593717
          ],
          [
            -98.76556842402658,
            20.10251522999218
          ],
          [
            -98.77234000379023,
            20.10904964393579
          ],
          [
            -98.772475277255,
            20.109311637294013
          ],
          [
            -98.77909880937474,
            20.115513030954745
          ],
          [
            -98.78189404507735,
            20.117616813583055
          ],
          [
            -98.78815889741286,
            20.122594339777052
          ],
          [
            -98.78848692747458,
            20.12273480294361
          ],
          [
            -98.78942538713603,
            20.12284594197135
          ],
          [
            -98.79174194521946,
            20.122750679952162
          ],
          [
            -98.79494623541562,
            20.12301265036487
          ],
          [
            -98.79517450938712,
            20.123123789195134
          ],
          [
            -98.79748261287915,
            20.123417512866638
          ],
          [
            -98.79935109089323,
            20.123449269334827
          ],
          [
            -98.80006127658322,
            20.123481023205827
          ],
          [
            -98.80096591787877,
            20.12365566938007
          ],
          [
            -98.80159155765307,
            20.123885884494314
          ],
          [
            -98.80215801528658,
            20.124131976137903
          ],
          [
            -98.80498184886305,
            20.12607688034089
          ],
          [
            -98.80532002857677,
            20.126434108217552
          ],
          [
            -98.80659667190025,
            20.12733113546463
          ],
          [
            -98.80714622035063,
            20.127823307519094
          ],
          [
            -98.81132754308884,
            20.13091683258942
          ],
          [
            -98.81137827063823,
            20.131274046202222
          ],
          [
            -98.80992954690524,
            20.133179869486725
          ],
          [
            -98.80955754487694,
            20.13333069092755
          ],
          [
            -98.80893714147439,
            20.13417248454428
          ],
          [
            -98.80869196047882,
            20.134589275787917
          ],
          [
            -98.80855668701409,
            20.13508142498908
          ],
          [
            -98.8085144140564,
            20.13583552156402
          ],
          [
            -98.80843265604545,
            20.13962140105886
          ],
          [
            -98.80796765351042,
            20.1401611601363
          ],
          [
            -98.80726553889882,
            20.142571680132775
          ],
          [
            -98.80612416036614,
            20.145692229089562
          ]
        ],
        "type": "LineString"
      }
    }
  ]
}
