{
  "type": "FeatureCollection",
  "name": "RA 17 TEZONTLE / HOSPITAL GENERAL PACHUCA (vuelta)",
  "features": [
    {
      "type": "Feature",
      "properties": {
        "routeId": "tuzobus-ra-17-vuelta",
        "name": "RA 17 TEZONTLE / HOSPITAL GENERAL PACHUCA (vuelta)",
        "externalId": "RA 17",
        "origin": "EL TEZONTLE/ZONA PLATEADA/SAN CAYETANO/PUNTA AZUL/PIRACANTOS/EL PALMAR/AMPLIACIÓN SANTA JULIA/ CUBITOS/DOCTORES/CÉSPEDES/CIUDAD DE LOS NIÑOS",
        "destination": "Av Ferrocarril Central, Zona Plateada, 42084 Pachuca de Soto, Hgo.",
        "source": "tuzobus_oficial",
        "sourceLabel": "Tuzobus oficial",
        "sourceUrl": "https://p-tuzobus.hidalgo.gob.mx/",
        "routeType": "tuzobus_alimentadora",
        "color": "#7C3AED",
        "fare": "$10 aprox.",
        "frequency": "Por confirmar",
        "schedule": "Lunes a Viernes de 05:30 a 22:30 hrs, Sabados de 06:00 a 22:00 hrs y Domingo de 7:00 a 22:00 hrs",
        "status": "validated",
        "updatedAt": "2026-06-06",
        "featureIndex": 0
      },
      "geometry": {
        "type": "LineString",
        "coordinates": [
          [
            -98.721389,
            20.111389
          ],
          [
            -98.723333,
            20.113056
          ],
          [
            -98.726111,
            20.115556
          ],
          [
            -98.730278,
            20.116389
          ],
          [
            -98.7325,
            20.116944
          ],
          [
            -98.734722,
            20.117778
          ],
          [
            -98.735833,
            20.119167
          ],
          [
            -98.737222,
            20.121389
          ],
          [
            -98.740556,
            20.120278
          ],
          [
            -98.741944,
            20.119167
          ],
          [
            -98.743611,
            20.118056
          ],
          [
            -98.745556,
            20.116667
          ],
          [
            -98.749167,
            20.114167
          ],
          [
            -98.750278,
            20.116111
          ],
          [
            -98.753056,
            20.115833
          ],
          [
            -98.756389,
            20.116111
          ],
          [
            -98.7575,
            20.116667
          ],
          [
            -98.757778,
            20.115
          ],
          [
            -98.760278,
            20.114722
          ],
          [
            -98.7625,
            20.114444
          ],
          [
            -98.764444,
            20.114167
          ],
          [
            -98.766111,
            20.113889
          ],
          [
            -98.767222,
            20.113889
          ],
          [
            -98.769722,
            20.113611
          ],
          [
            -98.771389,
            20.113333
          ],
          [
            -98.772778,
            20.113056
          ],
          [
            -98.774167,
            20.115
          ],
          [
            -98.774167,
            20.117222
          ],
          [
            -98.774444,
            20.118611
          ],
          [
            -98.774444,
            20.12
          ],
          [
            -98.775833,
            20.121667
          ],
          [
            -98.7775,
            20.121667
          ],
          [
            -98.779722,
            20.121667
          ],
          [
            -98.781667,
            20.121389
          ],
          [
            -98.782222,
            20.119722
          ],
          [
            -98.783056,
            20.118611
          ],
          [
            -98.780833,
            20.116389
          ],
          [
            -98.777778,
            20.113611
          ],
          [
            -98.778611,
            20.108333
          ],
          [
            -98.780278,
            20.103056
          ],
          [
            -98.778889,
            20.105833
          ],
          [
            -98.778333,
            20.1075
          ],
          [
            -98.776389,
            20.106389
          ],
          [
            -98.7725,
            20.106111
          ],
          [
            -98.7725,
            20.103889
          ],
          [
            -98.7725,
            20.102222
          ],
          [
            -98.7725,
            20.100556
          ],
          [
            -98.772222,
            20.098333
          ],
          [
            -98.773889,
            20.096389
          ],
          [
            -98.775278,
            20.092778
          ]
        ]
      }
    }
  ]
}
