{
  "type": "FeatureCollection",
  "name": "RA 17 TEZONTLE / HOSPITAL GENERAL PACHUCA (ida)",
  "features": [
    {
      "type": "Feature",
      "properties": {
        "routeId": "tuzobus-ra-17-ida",
        "name": "RA 17 TEZONTLE / HOSPITAL GENERAL PACHUCA (ida)",
        "externalId": "RA 17",
        "origin": "EL TEZONTLE/ZONA PLATEADA/SAN CAYETANO/PUNTA AZUL/PIRACANTOS/EL PALMAR/AMPLIACIÓN SANTA JULIA/ CUBITOS/DOCTORES/CÉSPEDES/CIUDAD DE LOS NIÑOS",
        "destination": "Av Francisco I. Madero 104, Cd de los Niños, 42090 Pachuca de Soto, Hgo.",
        "source": "tuzobus_oficial",
        "sourceLabel": "Tuzobus oficial",
        "sourceUrl": "https://p-tuzobus.hidalgo.gob.mx/",
        "routeType": "tuzobus_alimentadora",
        "color": "#2563EB",
        "fare": "$10 aprox.",
        "frequency": "Por confirmar",
        "schedule": "Lunes a Viernes de 05:30 a 22:30 hrs, Sabados de 06:00 a 22:00 hrs y Domingo de 7:00 a 22:00 hrs",
        "status": "validated",
        "updatedAt": "2026-06-06",
        "featureIndex": 0
      },
      "geometry": {
        "type": "LineString",
        "coordinates": [
          [
            -98.775278,
            20.092778
          ],
          [
            -98.773611,
            20.096389
          ],
          [
            -98.771944,
            20.098333
          ],
          [
            -98.771944,
            20.100278
          ],
          [
            -98.772222,
            20.1025
          ],
          [
            -98.772222,
            20.104167
          ],
          [
            -98.772222,
            20.105833
          ],
          [
            -98.7725,
            20.108056
          ],
          [
            -98.775278,
            20.107778
          ],
          [
            -98.778333,
            20.108056
          ],
          [
            -98.777778,
            20.110556
          ],
          [
            -98.776111,
            20.112778
          ],
          [
            -98.779444,
            20.115833
          ],
          [
            -98.782778,
            20.118333
          ],
          [
            -98.781944,
            20.119444
          ],
          [
            -98.781667,
            20.121111
          ],
          [
            -98.779444,
            20.121389
          ],
          [
            -98.777222,
            20.121389
          ],
          [
            -98.775833,
            20.121111
          ],
          [
            -98.774722,
            20.120278
          ],
          [
            -98.774722,
            20.118611
          ],
          [
            -98.774722,
            20.117222
          ],
          [
            -98.774444,
            20.115
          ],
          [
            -98.773056,
            20.113056
          ],
          [
            -98.771389,
            20.113056
          ],
          [
            -98.77,
            20.113333
          ],
          [
            -98.767778,
            20.113611
          ],
          [
            -98.765833,
            20.113889
          ],
          [
            -98.761944,
            20.114167
          ],
          [
            -98.761944,
            20.114167
          ],
          [
            -98.757778,
            20.113889
          ],
          [
            -98.7575,
            20.115
          ],
          [
            -98.756111,
            20.115833
          ],
          [
            -98.752222,
            20.115278
          ],
          [
            -98.751111,
            20.115833
          ],
          [
            -98.749722,
            20.115833
          ],
          [
            -98.749167,
            20.113889
          ],
          [
            -98.747222,
            20.115
          ],
          [
            -98.744167,
            20.116667
          ],
          [
            -98.7425,
            20.117778
          ],
          [
            -98.740833,
            20.118889
          ],
          [
            -98.739444,
            20.12
          ],
          [
            -98.736667,
            20.121667
          ],
          [
            -98.733056,
            20.118056
          ],
          [
            -98.729722,
            20.1175
          ],
          [
            -98.727778,
            20.116944
          ],
          [
            -98.724722,
            20.114722
          ],
          [
            -98.723333,
            20.112778
          ]
        ]
      }
    }
  ]
}
