{
  "type": "FeatureCollection",
  "name": "RA 13 EL VENADO / E. HOSPITALES (ida)",
  "features": [
    {
      "type": "Feature",
      "properties": {
        "routeId": "tuzobus-ra-13-ida",
        "name": "RA 13 EL VENADO / E. HOSPITALES (ida)",
        "externalId": "RA 13",
        "origin": "ISSTE/REAL DE LA PLATA/EL VENADO/LOS TUZOS",
        "destination": "Av Río Papaloapan, Issste, 42083 Pachuca de Soto, Hgo.",
        "source": "tuzobus_oficial",
        "sourceLabel": "Tuzobus oficial",
        "sourceUrl": "https://p-tuzobus.hidalgo.gob.mx/",
        "routeType": "tuzobus_alimentadora",
        "color": "#2563EB",
        "fare": "$10 aprox.",
        "frequency": "Por confirmar",
        "schedule": "Lunes a Viernes de 05:30 a 22:30 hrs, Sabados de 06:00 a 22:00 hrs y Domingo de 7:00 a 22:00 hrs",
        "status": "validated",
        "updatedAt": "2026-06-06",
        "featureIndex": 0
      },
      "geometry": {
        "type": "LineString",
        "coordinates": [
          [
            -98.754167,
            20.055278
          ],
          [
            -98.754444,
            20.055833
          ],
          [
            -98.756944,
            20.056667
          ],
          [
            -98.7575,
            20.058611
          ],
          [
            -98.758333,
            20.06
          ],
          [
            -98.758611,
            20.061667
          ],
          [
            -98.758333,
            20.062778
          ],
          [
            -98.758333,
            20.064444
          ],
          [
            -98.759722,
            20.065278
          ],
          [
            -98.761667,
            20.066111
          ],
          [
            -98.767222,
            20.068889
          ],
          [
            -98.769444,
            20.071111
          ],
          [
            -98.769722,
            20.071667
          ],
          [
            -98.770278,
            20.0725
          ],
          [
            -98.771667,
            20.073889
          ],
          [
            -98.773333,
            20.073889
          ],
          [
            -98.775,
            20.074444
          ]
        ]
      }
    }
  ]
}
