{
  "type": "FeatureCollection",
  "name": "RA-02B BLVD. SAN ALFONSO / JAGÜEY TÉLLEZ (vuelta)",
  "features": [
    {
      "type": "Feature",
      "properties": {
        "routeId": "tuzobus-ra-02b-vuelta",
        "name": "RA-02B BLVD. SAN ALFONSO / JAGÜEY TÉLLEZ (vuelta)",
        "externalId": "RA-02B",
        "origin": "VILLA FONTANA/SAN ALFONSO /JAGÜEY TÉLLEZ",
        "destination": "43845 Villa Fontana, Hgo.",
        "source": "tuzobus_oficial",
        "sourceLabel": "Tuzobus oficial",
        "sourceUrl": "https://p-tuzobus.hidalgo.gob.mx/",
        "routeType": "tuzobus_alimentadora",
        "color": "#7C3AED",
        "fare": "$10 aprox.",
        "frequency": "Por confirmar",
        "schedule": "Lunes a Viernes de 05:30 a 22:30 hrs, Sabados de 06:00 a 22:00 hrs y Domingo de 7:00 a 22:00 hrs",
        "status": "validated",
        "updatedAt": "2026-06-06",
        "featureIndex": 0
      },
      "geometry": {
        "type": "LineString",
        "coordinates": [
          [
            -98.782222,
            19.975556
          ],
          [
            -98.782222,
            19.975556
          ],
          [
            -98.783889,
            19.977778
          ],
          [
            -98.784722,
            19.978611
          ],
          [
            -98.786111,
            19.98
          ],
          [
            -98.787222,
            19.982222
          ],
          [
            -98.788611,
            19.984722
          ],
          [
            -98.79,
            19.986944
          ],
          [
            -98.792222,
            19.990833
          ],
          [
            -98.800278,
            20.005
          ],
          [
            -98.803611,
            20.011944
          ],
          [
            -98.808056,
            20.017778
          ],
          [
            -98.804722,
            20.018056
          ],
          [
            -98.799722,
            20.017778
          ],
          [
            -98.794167,
            20.017778
          ],
          [
            -98.791944,
            20.017778
          ],
          [
            -98.789722,
            20.017778
          ],
          [
            -98.787222,
            20.017778
          ],
          [
            -98.785,
            20.017778
          ],
          [
            -98.783333,
            20.017778
          ],
          [
            -98.783056,
            20.02
          ],
          [
            -98.779167,
            20.02
          ]
        ]
      }
    }
  ]
}
