{
  "type": "FeatureCollection",
  "name": "RA-02B BLVD. SAN ALFONSO / JAGÜEY TÉLLEZ (ida)",
  "features": [
    {
      "type": "Feature",
      "properties": {
        "routeId": "tuzobus-ra-02b-ida",
        "name": "RA-02B BLVD. SAN ALFONSO / JAGÜEY TÉLLEZ (ida)",
        "externalId": "RA-02B",
        "origin": "VILLA FONTANA/SAN ALFONSO /JAGÜEY TÉLLEZ",
        "destination": "Jagüey de Téllez, 43840 Jagüey de Téllez, Hgo",
        "source": "tuzobus_oficial",
        "sourceLabel": "Tuzobus oficial",
        "sourceUrl": "https://p-tuzobus.hidalgo.gob.mx/",
        "routeType": "tuzobus_alimentadora",
        "color": "#2563EB",
        "fare": "$10 aprox.",
        "frequency": "Por confirmar",
        "schedule": "Lunes a Viernes de 05:30 a 22:30 hrs, Sabados de 06:00 a 22:00 hrs y Domingo de 7:00 a 22:00 hrs",
        "status": "validated",
        "updatedAt": "2026-06-06",
        "featureIndex": 0
      },
      "geometry": {
        "type": "LineString",
        "coordinates": [
          [
            -98.779167,
            20.02
          ],
          [
            -98.779167,
            20.02
          ],
          [
            -98.783333,
            20.02
          ],
          [
            -98.783611,
            20.017778
          ],
          [
            -98.785,
            20.017778
          ],
          [
            -98.787222,
            20.018056
          ],
          [
            -98.789722,
            20.017778
          ],
          [
            -98.791667,
            20.018056
          ],
          [
            -98.793611,
            20.018056
          ],
          [
            -98.795,
            20.018056
          ],
          [
            -98.799444,
            20.018056
          ],
          [
            -98.805278,
            20.018056
          ],
          [
            -98.808056,
            20.018056
          ],
          [
            -98.803889,
            20.012222
          ],
          [
            -98.800278,
            20.004444
          ],
          [
            -98.792778,
            19.991111
          ],
          [
            -98.790556,
            19.987222
          ],
          [
            -98.788889,
            19.984444
          ],
          [
            -98.7875,
            19.982222
          ],
          [
            -98.786389,
            19.980278
          ],
          [
            -98.785278,
            19.978889
          ],
          [
            -98.784167,
            19.977778
          ],
          [
            -98.782222,
            19.975556
          ]
        ]
      }
    }
  ]
}
