{
  "type": "FeatureCollection",
  "name": "RA 12 MAGISTERIO / E. JUAN C DORIA (vuelta)",
  "features": [
    {
      "type": "Feature",
      "properties": {
        "routeId": "tuzobus-ra-12-vuelta",
        "name": "RA 12 MAGISTERIO / E. JUAN C DORIA (vuelta)",
        "externalId": "RA 12",
        "origin": "MAGISTERIO/LOS PINOS/TULIPANES/GEO VILLAS/JUAN C. DORIA",
        "destination": "C. Quetzalcoatl 545-433, La Colonia, 42185 Pachuca de Soto, Hgo.",
        "source": "tuzobus_oficial",
        "sourceLabel": "Tuzobus oficial",
        "sourceUrl": "https://p-tuzobus.hidalgo.gob.mx/",
        "routeType": "tuzobus_alimentadora",
        "color": "#7C3AED",
        "fare": "$10 aprox.",
        "frequency": "Por confirmar",
        "schedule": "Lunes a Viernes de 05:30 a 22:30 hrs, Sabados de 06:00 a 22:00 hrs y Domingo de 7:00 a 22:00 hrs",
        "status": "validated",
        "updatedAt": "2026-06-06",
        "featureIndex": 0
      },
      "geometry": {
        "type": "LineString",
        "coordinates": [
          [
            -98.779444,
            20.068333
          ],
          [
            -98.776389,
            20.068611
          ],
          [
            -98.776389,
            20.066667
          ],
          [
            -98.776667,
            20.065
          ],
          [
            -98.777222,
            20.063333
          ],
          [
            -98.777778,
            20.0625
          ],
          [
            -98.774167,
            20.060833
          ],
          [
            -98.772778,
            20.06
          ],
          [
            -98.771389,
            20.060278
          ],
          [
            -98.769444,
            20.06
          ],
          [
            -98.768056,
            20.059444
          ],
          [
            -98.768611,
            20.057778
          ],
          [
            -98.769722,
            20.056667
          ],
          [
            -98.770278,
            20.055833
          ],
          [
            -98.770556,
            20.054722
          ]
        ]
      }
    }
  ]
}
