{
  "type": "FeatureCollection",
  "name": "RA 19 REAL DEL VALLE / E. PREPA 1 (vuelta)",
  "features": [
    {
      "type": "Feature",
      "properties": {
        "routeId": "tuzobus-ra-19-vuelta",
        "name": "RA 19 REAL DEL VALLE / E. PREPA 1 (vuelta)",
        "externalId": "RA 19",
        "origin": "PIRACANTOS, EL PALMAR, AMPLIACIÓN SANTA JULIA, CONSTITUCIÓN, VALLE DE SAN JAVIER",
        "destination": "Real de San Carlos 103-106, Real del Valle, 42086 Pachuca de Soto, Hgo.",
        "source": "tuzobus_oficial",
        "sourceLabel": "Tuzobus oficial",
        "sourceUrl": "https://p-tuzobus.hidalgo.gob.mx/",
        "routeType": "tuzobus_alimentadora",
        "color": "#7C3AED",
        "fare": "$10 aprox.",
        "frequency": "Por confirmar",
        "schedule": "Lunes a Viernes de 05:30 a 22:30 hrs, Sabados de 06:00 a 22:00 hrs y Domingo de 7:00 a 22:00 hrs",
        "status": "validated",
        "updatedAt": "2026-06-06",
        "featureIndex": 0
      },
      "geometry": {
        "type": "LineString",
        "coordinates": [
          [
            -98.7525,
            20.088889
          ],
          [
            -98.774722,
            20.120833
          ],
          [
            -98.773056,
            20.120556
          ],
          [
            -98.771944,
            20.120278
          ],
          [
            -98.77,
            20.119444
          ],
          [
            -98.770278,
            20.1175
          ],
          [
            -98.770278,
            20.115833
          ],
          [
            -98.77,
            20.113611
          ],
          [
            -98.77,
            20.111111
          ],
          [
            -98.769722,
            20.109167
          ],
          [
            -98.7675,
            20.109167
          ],
          [
            -98.764722,
            20.109722
          ],
          [
            -98.762222,
            20.110556
          ],
          [
            -98.760556,
            20.110833
          ],
          [
            -98.7575,
            20.114167
          ],
          [
            -98.755833,
            20.113889
          ],
          [
            -98.754167,
            20.113611
          ],
          [
            -98.753056,
            20.114167
          ],
          [
            -98.751389,
            20.115556
          ],
          [
            -98.749444,
            20.115833
          ],
          [
            -98.749444,
            20.114167
          ],
          [
            -98.750556,
            20.1125
          ],
          [
            -98.755,
            20.108611
          ],
          [
            -98.751944,
            20.106111
          ],
          [
            -98.750833,
            20.104444
          ],
          [
            -98.751389,
            20.100556
          ],
          [
            -98.751389,
            20.098889
          ],
          [
            -98.751667,
            20.096944
          ],
          [
            -98.751944,
            20.094444
          ],
          [
            -98.752222,
            20.092778
          ],
          [
            -98.7525,
            20.090278
          ],
          [
            -98.7525,
            20.088889
          ]
        ]
      }
    }
  ]
}
