{
  "type": "FeatureCollection",
  "name": "RA-15B ABETOS / E. C. DE AUTOBUSES (ida)",
  "features": [
    {
      "type": "Feature",
      "properties": {
        "routeId": "tuzobus-ra-15b-ida",
        "name": "RA-15B ABETOS / E. C. DE AUTOBUSES (ida)",
        "externalId": "RA-15B",
        "origin": "ABETOS/AMPLIACION EL PALMAR/SAN CAYETANO/AMPLIACION SANTA JULIA",
        "destination": "Jaime Torres Bodet, 42064 Pachuca de Soto, Hgo.",
        "source": "tuzobus_oficial",
        "sourceLabel": "Tuzobus oficial",
        "sourceUrl": "https://p-tuzobus.hidalgo.gob.mx/",
        "routeType": "tuzobus_alimentadora",
        "color": "#2563EB",
        "fare": "$10 aprox.",
        "frequency": "Por confirmar",
        "schedule": "Lunes a Viernes de 05:30 a 22:30 hrs, Sabados de 06:00 a 22:00 hrs y Domingo de 7:00 a 22:00 hrs",
        "status": "validated",
        "updatedAt": "2026-06-06",
        "featureIndex": 0
      },
      "geometry": {
        "type": "LineString",
        "coordinates": [
          [
            -98.800833,
            20.114722
          ],
          [
            -98.795833,
            20.112778
          ],
          [
            -98.791389,
            20.111111
          ],
          [
            -98.788056,
            20.110556
          ],
          [
            -98.784444,
            20.109722
          ],
          [
            -98.783889,
            20.111944
          ],
          [
            -98.784444,
            20.113611
          ],
          [
            -98.784167,
            20.115278
          ],
          [
            -98.783611,
            20.116667
          ],
          [
            -98.781389,
            20.116667
          ],
          [
            -98.778889,
            20.114722
          ],
          [
            -98.775,
            20.111111
          ],
          [
            -98.771944,
            20.108333
          ],
          [
            -98.77,
            20.106111
          ],
          [
            -98.767778,
            20.104444
          ],
          [
            -98.765278,
            20.101944
          ],
          [
            -98.760833,
            20.102222
          ]
        ]
      }
    }
  ]
}
