{
  "type": "FeatureCollection",
  "name": "RA 15-A SAN CAYETANO / E. C. DE AUTOBUSES (vuelta)",
  "features": [
    {
      "type": "Feature",
      "properties": {
        "routeId": "tuzobus-ra-15-a-vuelta",
        "name": "RA 15-A SAN CAYETANO / E. C. DE AUTOBUSES (vuelta)",
        "externalId": "RA 15-A",
        "origin": "LA LOMA/AMPLIACION EL PALMAR/SAN CAYETANO/AMPLIACION SANTA JULIA",
        "destination": "Loma Bonita, Pachuca de Soto, Hgo.",
        "source": "tuzobus_oficial",
        "sourceLabel": "Tuzobus oficial",
        "sourceUrl": "https://p-tuzobus.hidalgo.gob.mx/",
        "routeType": "tuzobus_alimentadora",
        "color": "#7C3AED",
        "fare": "$10 aprox.",
        "frequency": "Por confirmar",
        "schedule": "Lunes a Viernes de 05:30 a 22:30 hrs, Sabados de 06:00 a 22:00 hrs y Domingo de 7:00 a 22:00 hrs",
        "status": "validated",
        "updatedAt": "2026-06-06",
        "featureIndex": 0
      },
      "geometry": {
        "type": "LineString",
        "coordinates": [
          [
            -98.752222,
            20.106389
          ],
          [
            -98.761111,
            20.1025
          ],
          [
            -98.765,
            20.098889
          ],
          [
            -98.771944,
            20.098333
          ],
          [
            -98.768889,
            20.100833
          ],
          [
            -98.769444,
            20.102778
          ],
          [
            -98.7725,
            20.102778
          ],
          [
            -98.775278,
            20.102778
          ],
          [
            -98.775278,
            20.105
          ],
          [
            -98.775,
            20.1075
          ],
          [
            -98.776389,
            20.107778
          ],
          [
            -98.778333,
            20.108333
          ],
          [
            -98.778889,
            20.107778
          ],
          [
            -98.781667,
            20.1075
          ],
          [
            -98.783611,
            20.1075
          ],
          [
            -98.785278,
            20.107222
          ],
          [
            -98.788056,
            20.106667
          ],
          [
            -98.790278,
            20.106667
          ],
          [
            -98.7925,
            20.106944
          ],
          [
            -98.793611,
            20.107222
          ],
          [
            -98.795556,
            20.106944
          ],
          [
            -98.7975,
            20.106389
          ],
          [
            -98.796944,
            20.104444
          ],
          [
            -98.798611,
            20.103889
          ],
          [
            -98.799444,
            20.10361
          ],
          [
            -98.800833,
            20.103333
          ],
          [
            -98.802778,
            20.102778
          ],
          [
            -98.804722,
            20.1025
          ],
          [
            -98.806667,
            20.101944
          ]
        ]
      }
    }
  ]
}
