{
  "type": "FeatureCollection",
  "name": "RA 19 REAL DEL VALLE / E. PREPA 1 (ida)",
  "features": [
    {
      "type": "Feature",
      "properties": {
        "routeId": "tuzobus-ra-19-ida",
        "name": "RA 19 REAL DEL VALLE / E. PREPA 1 (ida)",
        "externalId": "RA 19",
        "origin": "PIRACANTOS, EL PALMAR, AMPLIACIÓN SANTA JULIA, CONSTITUCIÓN, VALLE DE SAN JAVIER",
        "destination": "Av Solidaridad 911, Parque de Poblamiento 1a. Secc, Parque de Poblamiento, 42032 Pachuca de Soto, Hgo.",
        "source": "tuzobus_oficial",
        "sourceLabel": "Tuzobus oficial",
        "sourceUrl": "https://p-tuzobus.hidalgo.gob.mx/",
        "routeType": "tuzobus_alimentadora",
        "color": "#2563EB",
        "fare": "$10 aprox.",
        "frequency": "Por confirmar",
        "schedule": "Lunes a Viernes de 05:30 a 22:30 hrs, Sabados de 06:00 a 22:00 hrs y Domingo de 7:00 a 22:00 hrs",
        "status": "validated",
        "updatedAt": "2026-06-06",
        "featureIndex": 0
      },
      "geometry": {
        "type": "LineString",
        "coordinates": [
          [
            -98.774722,
            20.120833
          ],
          [
            -98.7525,
            20.088889
          ],
          [
            -98.752222,
            20.090278
          ],
          [
            -98.751944,
            20.091944
          ],
          [
            -98.751944,
            20.093611
          ],
          [
            -98.751389,
            20.096944
          ],
          [
            -98.751389,
            20.098611
          ],
          [
            -98.751111,
            20.100556
          ],
          [
            -98.750556,
            20.104722
          ],
          [
            -98.750278,
            20.106667
          ],
          [
            -98.750278,
            20.110833
          ],
          [
            -98.751389,
            20.1125
          ],
          [
            -98.753889,
            20.113611
          ],
          [
            -98.756111,
            20.114167
          ],
          [
            -98.759167,
            20.114722
          ],
          [
            -98.76,
            20.112778
          ],
          [
            -98.760833,
            20.110833
          ],
          [
            -98.762778,
            20.110556
          ],
          [
            -98.765278,
            20.11
          ],
          [
            -98.7675,
            20.109444
          ],
          [
            -98.769722,
            20.109722
          ],
          [
            -98.769722,
            20.111111
          ],
          [
            -98.769722,
            20.113611
          ],
          [
            -98.77,
            20.115556
          ],
          [
            -98.769722,
            20.1175
          ],
          [
            -98.77,
            20.12
          ],
          [
            -98.771667,
            20.120278
          ],
          [
            -98.774167,
            20.121111
          ]
        ]
      }
    }
  ]
}
