{
  "type": "FeatureCollection",
  "name": "RA 10 CAMELINAS / E. C. DE JUSTICIA (ida)",
  "features": [
    {
      "type": "Feature",
      "properties": {
        "routeId": "tuzobus-ra-10-ida",
        "name": "RA 10 CAMELINAS / E. C. DE JUSTICIA (ida)",
        "externalId": "RA 10",
        "origin": "COLONIAS DE PACHUCA/HACIENDA LA HERRADURA/HACIENDAS HIDALGO/CAMELINAS/PARQUE ESMERALDA",
        "destination": "Hacienda la Herradura, 42082 Pachuca de Soto, Hgo.",
        "source": "tuzobus_oficial",
        "sourceLabel": "Tuzobus oficial",
        "sourceUrl": "https://p-tuzobus.hidalgo.gob.mx/",
        "routeType": "tuzobus_alimentadora",
        "color": "#2563EB",
        "fare": "$10 aprox.",
        "frequency": "Por confirmar",
        "schedule": "Lunes a Viernes de 05:30 a 22:30 hrs, Sabados de 06:00 a 22:00 hrs y Domingo de 7:00 a 22:00 hrs",
        "status": "validated",
        "updatedAt": "2026-06-06",
        "featureIndex": 0
      },
      "geometry": {
        "type": "LineString",
        "coordinates": [
          [
            -98.786111,
            20.075833
          ],
          [
            -98.786667,
            20.076667
          ],
          [
            -98.787222,
            20.077778
          ],
          [
            -98.786667,
            20.082222
          ],
          [
            -98.788611,
            20.076944
          ],
          [
            -98.790833,
            20.074722
          ],
          [
            -98.791111,
            20.069444
          ],
          [
            -98.790278,
            20.0675
          ],
          [
            -98.789444,
            20.065278
          ],
          [
            -98.787778,
            20.062222
          ]
        ]
      }
    }
  ]
}
