{
  "type": "FeatureCollection",
  "name": "RA-05 PARQUE URBANO / E. EJERCITO MEXICANO (ida)",
  "features": [
    {
      "type": "Feature",
      "properties": {
        "routeId": "tuzobus-ra-05-ida",
        "name": "RA-05 PARQUE URBANO / E. EJERCITO MEXICANO (ida)",
        "externalId": "RA-05",
        "origin": "PARQUE URBANO/SAN ANTONIO",
        "destination": "Av. Hidalgo 389, San Antonio el Desmonte, 42083 Pachuca de Soto, Hgo.",
        "source": "tuzobus_oficial",
        "sourceLabel": "Tuzobus oficial",
        "sourceUrl": "https://p-tuzobus.hidalgo.gob.mx/",
        "routeType": "tuzobus_alimentadora",
        "color": "#2563EB",
        "fare": "$10 aprox.",
        "frequency": "Por confirmar",
        "schedule": "Lunes a Viernes de 05:30 a 22:30 hrs, Sabados de 06:00 a 22:00 hrs y Domingo de 7:00 a 22:00 hrs",
        "status": "validated",
        "updatedAt": "2026-06-06",
        "featureIndex": 0
      },
      "geometry": {
        "type": "LineString",
        "coordinates": [
          [
            -98.778889,
            20.039722
          ],
          [
            -98.780833,
            20.040556
          ],
          [
            -98.781111,
            20.041389
          ],
          [
            -98.780833,
            20.044444
          ],
          [
            -98.780833,
            20.046667
          ],
          [
            -98.781389,
            20.046944
          ],
          [
            -98.783333,
            20.048056
          ],
          [
            -98.785556,
            20.049167
          ],
          [
            -98.787222,
            20.05
          ],
          [
            -98.788611,
            20.048889
          ]
        ]
      }
    }
  ]
}
