{
  "type": "FeatureCollection",
  "name": "RA 04 LA PALMA / E. TERCERA EDAD (ida)",
  "features": [
    {
      "type": "Feature",
      "properties": {
        "routeId": "tuzobus-ra-04-ida",
        "name": "RA 04 LA PALMA / E. TERCERA EDAD (ida)",
        "externalId": "RA 04",
        "origin": "LA PALMA/FRACC. LOMAS DE LA PLATA",
        "destination": "42083 Pachuca de Soto, Hgo.",
        "source": "tuzobus_oficial",
        "sourceLabel": "Tuzobus oficial",
        "sourceUrl": "https://p-tuzobus.hidalgo.gob.mx/",
        "routeType": "tuzobus_alimentadora",
        "color": "#2563EB",
        "fare": "$10 aprox.",
        "frequency": "Por confirmar",
        "schedule": "Lunes a Viernes de 05:30 a 22:30 hrs, Sabados de 06:00 a 22:00 hrs y Domingo de 7:00 a 22:00 hrs",
        "status": "validated",
        "updatedAt": "2026-06-06",
        "featureIndex": 0
      },
      "geometry": {
        "type": "LineString",
        "coordinates": [
          [
            -98.818611,
            20.048333
          ],
          [
            -98.818611,
            20.048333
          ],
          [
            -98.812778,
            20.046944
          ],
          [
            -98.809444,
            20.046389
          ],
          [
            -98.806111,
            20.045833
          ],
          [
            -98.803611,
            20.045278
          ],
          [
            -98.801667,
            20.044722
          ],
          [
            -98.799167,
            20.044444
          ],
          [
            -98.796667,
            20.043889
          ],
          [
            -98.795278,
            20.043611
          ],
          [
            -98.793611,
            20.042778
          ]
        ]
      }
    }
  ]
}
