{
  "type": "FeatureCollection",
  "name": "RA 12 MAGISTERIO / E. JUAN C DORIA (ida)",
  "features": [
    {
      "type": "Feature",
      "properties": {
        "routeId": "tuzobus-ra-12-ida",
        "name": "RA 12 MAGISTERIO / E. JUAN C DORIA (ida)",
        "externalId": "RA 12",
        "origin": "MAGISTERIO/LOS PINOS/TULIPANES/GEO VILLAS/JUAN C. DORIA",
        "destination": "Distribuidor Vial Pl. de Toros, 42083 Pachuca de Soto, Hgo.",
        "source": "tuzobus_oficial",
        "sourceLabel": "Tuzobus oficial",
        "sourceUrl": "https://p-tuzobus.hidalgo.gob.mx/",
        "routeType": "tuzobus_alimentadora",
        "color": "#2563EB",
        "fare": "$10 aprox.",
        "frequency": "Por confirmar",
        "schedule": "Lunes a Viernes de 05:30 a 22:30 hrs, Sabados de 06:00 a 22:00 hrs y Domingo de 7:00 a 22:00 hrs",
        "status": "validated",
        "updatedAt": "2026-06-06",
        "featureIndex": 0
      },
      "geometry": {
        "type": "LineString",
        "coordinates": [
          [
            -98.770556,
            20.054722
          ],
          [
            -98.769722,
            20.055556
          ],
          [
            -98.769444,
            20.056389
          ],
          [
            -98.768333,
            20.057778
          ],
          [
            -98.767778,
            20.059722
          ],
          [
            -98.769444,
            20.060278
          ],
          [
            -98.772778,
            20.060833
          ],
          [
            -98.7775,
            20.0625
          ],
          [
            -98.781389,
            20.064722
          ]
        ]
      }
    }
  ]
}
