{
  "type": "FeatureCollection",
  "name": "RA- 2D C. VIÑEDOS / CETRAM TÉLLEZ (ida)",
  "features": [
    {
      "type": "Feature",
      "properties": {
        "routeId": "tuzobus-ra-2d-ida",
        "name": "RA- 2D C. VIÑEDOS / CETRAM TÉLLEZ (ida)",
        "externalId": "RA- 2D",
        "origin": "FRACCIONAMIENTO VIÑEDOS",
        "destination": "Zempoala, 43845 Hgo.",
        "source": "tuzobus_oficial",
        "sourceLabel": "Tuzobus oficial",
        "sourceUrl": "https://p-tuzobus.hidalgo.gob.mx/",
        "routeType": "tuzobus_alimentadora",
        "color": "#2563EB",
        "fare": "$10 aprox.",
        "frequency": "Por confirmar",
        "schedule": "Lunes a Viernes de 05:30 a 22:30 hrs, Sabados de 06:00 a 22:00 hrs y Domingo de 7:00 a 22:00 hrs",
        "status": "validated",
        "updatedAt": "2026-06-06",
        "featureIndex": 0
      },
      "geometry": {
        "type": "LineString",
        "coordinates": [
          [
            -98.803889,
            20.011944
          ],
          [
            -98.803889,
            20.011944
          ],
          [
            -98.803056,
            20.01
          ],
          [
            -98.799722,
            20.009722
          ],
          [
            -98.796944,
            20.009722
          ],
          [
            -98.794167,
            20.01
          ],
          [
            -98.792222,
            20.009722
          ],
          [
            -98.790833,
            20.008611
          ],
          [
            -98.787778,
            20.005833
          ],
          [
            -98.79,
            20.008333
          ],
          [
            -98.788889,
            20.009167
          ],
          [
            -98.786111,
            20.009167
          ],
          [
            -98.781944,
            20.006111
          ],
          [
            -98.778056,
            20.006111
          ],
          [
            -98.774444,
            20.004167
          ]
        ]
      }
    }
  ]
}
