{
  "type": "FeatureCollection",
  "name": "RA 10 CAMELINAS / E. C. DE JUSTICIA (vuelta)",
  "features": [
    {
      "type": "Feature",
      "properties": {
        "routeId": "tuzobus-ra-10-vuelta",
        "name": "RA 10 CAMELINAS / E. C. DE JUSTICIA (vuelta)",
        "externalId": "RA 10",
        "origin": "COLONIAS DE PACHUCA/HACIENDA LA HERRADURA/HACIENDAS HIDALGO/CAMELINAS/PARQUE ESMERALDA",
        "destination": "Bugambilias 219-134, Paseo de Camelinas, 42084 Pachuca de Soto, Hgo.",
        "source": "tuzobus_oficial",
        "sourceLabel": "Tuzobus oficial",
        "sourceUrl": "https://p-tuzobus.hidalgo.gob.mx/",
        "routeType": "tuzobus_alimentadora",
        "color": "#7C3AED",
        "fare": "$10 aprox.",
        "frequency": "Por confirmar",
        "schedule": "Lunes a Viernes de 05:30 a 22:30 hrs, Sabados de 06:00 a 22:00 hrs y Domingo de 7:00 a 22:00 hrs",
        "status": "validated",
        "updatedAt": "2026-06-06",
        "featureIndex": 0
      },
      "geometry": {
        "type": "LineString",
        "coordinates": [
          [
            -98.783889,
            20.06
          ],
          [
            -98.780833,
            20.058333
          ],
          [
            -98.778889,
            20.057222
          ],
          [
            -98.781389,
            20.055
          ],
          [
            -98.7875,
            20.062222
          ],
          [
            -98.788611,
            20.064722
          ],
          [
            -98.789167,
            20.066111
          ],
          [
            -98.790556,
            20.068889
          ],
          [
            -98.790833,
            20.074444
          ],
          [
            -98.788611,
            20.076389
          ],
          [
            -98.7875,
            20.0775
          ],
          [
            -98.786667,
            20.076667
          ],
          [
            -98.786111,
            20.075833
          ],
          [
            -98.786667,
            20.076667
          ]
        ]
      }
    }
  ]
}
