{
  "type": "FeatureCollection",
  "name": "RA 11 HUIXMÍ / E. C. DE JUSTICIA (vuelta)",
  "features": [
    {
      "type": "Feature",
      "properties": {
        "routeId": "tuzobus-ra-11-vuelta",
        "name": "RA 11 HUIXMÍ / E. C. DE JUSTICIA (vuelta)",
        "externalId": "RA 11",
        "origin": "COLONIAS DE PACHUCA/HACIENDA LA HERRADURA/HACIENDAS HIDALGO/LAS TORRES/SANTA GERTRUDIS/EL HUIXMI",
        "destination": "Mayas, 42115 El Huixmí, Hgo.",
        "source": "tuzobus_oficial",
        "sourceLabel": "Tuzobus oficial",
        "sourceUrl": "https://p-tuzobus.hidalgo.gob.mx/",
        "routeType": "tuzobus_alimentadora",
        "color": "#7C3AED",
        "fare": "$10 aprox.",
        "frequency": "Por confirmar",
        "schedule": "Lunes a Viernes de 05:30 a 22:30 hrs, Sabados de 06:00 a 22:00 hrs y Domingo de 7:00 a 22:00 hrs",
        "status": "validated",
        "updatedAt": "2026-06-06",
        "featureIndex": 0
      },
      "geometry": {
        "type": "LineString",
        "coordinates": [
          [
            -98.783889,
            20.06
          ],
          [
            -98.780833,
            20.058333
          ],
          [
            -98.778889,
            20.057222
          ],
          [
            -98.781389,
            20.055
          ],
          [
            -98.7875,
            20.062222
          ],
          [
            -98.788611,
            20.064722
          ],
          [
            -98.789167,
            20.066111
          ],
          [
            -98.790556,
            20.068889
          ],
          [
            -98.792778,
            20.073889
          ],
          [
            -98.793889,
            20.075833
          ],
          [
            -98.796111,
            20.080833
          ],
          [
            -98.797222,
            20.083333
          ],
          [
            -98.800278,
            20.09
          ],
          [
            -98.804444,
            20.088333
          ],
          [
            -98.806667,
            20.086944
          ],
          [
            -98.808056,
            20.086111
          ],
          [
            -98.809444,
            20.084722
          ],
          [
            -98.816667,
            20.078056
          ],
          [
            -98.818333,
            20.076944
          ],
          [
            -98.819444,
            20.075833
          ],
          [
            -98.819444,
            20.074444
          ],
          [
            -98.819444,
            20.073333
          ],
          [
            -98.818333,
            20.073333
          ],
          [
            -98.817222,
            20.073333
          ],
          [
            -98.815556,
            20.072222
          ],
          [
            -98.816389,
            20.071111
          ],
          [
            -98.816111,
            20.070833
          ]
        ]
      }
    }
  ]
}
