{
  "type": "FeatureCollection",
  "name": "RA-02A FRACC. VILLA FONTANA / E. MATILDE (ida)",
  "features": [
    {
      "type": "Feature",
      "properties": {
        "routeId": "tuzobus-ra-02a-ida",
        "name": "RA-02A FRACC. VILLA FONTANA / E. MATILDE (ida)",
        "externalId": "RA-02A",
        "origin": "SAN ALFONSO/SANTA MATILDE/ LINDA VISTA",
        "destination": "Autopista México - Pachuca 10, Matilde, 42119 Pachuca de Soto, Hgo.",
        "source": "tuzobus_oficial",
        "sourceLabel": "Tuzobus oficial",
        "sourceUrl": "https://p-tuzobus.hidalgo.gob.mx/",
        "routeType": "tuzobus_alimentadora",
        "color": "#2563EB",
        "fare": "$10 aprox.",
        "frequency": "Por confirmar",
        "schedule": "Lunes a Viernes de 05:30 a 22:30 hrs, Sabados de 06:00 a 22:00 hrs y Domingo de 7:00 a 22:00 hrs",
        "status": "validated",
        "updatedAt": "2026-06-06",
        "featureIndex": 0
      },
      "geometry": {
        "type": "LineString",
        "coordinates": [
          [
            -98.802778,
            20.030278
          ],
          [
            -98.785,
            20.016389
          ],
          [
            -98.785,
            20.016389
          ],
          [
            -98.783611,
            20.017778
          ],
          [
            -98.787222,
            20.018056
          ],
          [
            -98.789444,
            20.018056
          ],
          [
            -98.791667,
            20.018056
          ],
          [
            -98.791667,
            20.020556
          ],
          [
            -98.791389,
            20.021667
          ],
          [
            -98.787222,
            20.0225
          ],
          [
            -98.787222,
            20.024722
          ],
          [
            -98.787778,
            20.027222
          ],
          [
            -98.791667,
            20.028056
          ],
          [
            -98.795,
            20.028889
          ],
          [
            -98.797222,
            20.026389
          ],
          [
            -98.798889,
            20.025833
          ],
          [
            -98.800833,
            20.0275
          ],
          [
            -98.802778,
            20.030278
          ]
        ]
      }
    }
  ]
}
