{
  "type": "FeatureCollection",
  "name": "RA 15-A SAN CAYETANO / E. C. DE AUTOBUSES (ida)",
  "features": [
    {
      "type": "Feature",
      "properties": {
        "routeId": "tuzobus-ra-15-a-ida",
        "name": "RA 15-A SAN CAYETANO / E. C. DE AUTOBUSES (ida)",
        "externalId": "RA 15-A",
        "origin": "LA LOMA/AMPLIACION EL PALMAR/SAN CAYETANO/AMPLIACION SANTA JULIA",
        "destination": "Jaime Torres Bodet, 42064 Pachuca de Soto, Hgo.",
        "source": "tuzobus_oficial",
        "sourceLabel": "Tuzobus oficial",
        "sourceUrl": "https://p-tuzobus.hidalgo.gob.mx/",
        "routeType": "tuzobus_alimentadora",
        "color": "#2563EB",
        "fare": "$10 aprox.",
        "frequency": "Por confirmar",
        "schedule": "Lunes a Viernes de 05:30 a 22:30 hrs, Sabados de 06:00 a 22:00 hrs y Domingo de 7:00 a 22:00 hrs",
        "status": "validated",
        "updatedAt": "2026-06-06",
        "featureIndex": 0
      },
      "geometry": {
        "type": "LineString",
        "coordinates": [
          [
            -98.806667,
            20.101944
          ],
          [
            -98.804722,
            20.102222
          ],
          [
            -98.802778,
            20.102778
          ],
          [
            -98.800833,
            20.103056
          ],
          [
            -98.798611,
            20.103611
          ],
          [
            -98.796667,
            20.104167
          ],
          [
            -98.797222,
            20.106389
          ],
          [
            -98.795833,
            20.106667
          ],
          [
            -98.793889,
            20.107222
          ],
          [
            -98.792222,
            20.106944
          ],
          [
            -98.79,
            20.106389
          ],
          [
            -98.787222,
            20.106667
          ],
          [
            -98.785,
            20.107222
          ],
          [
            -98.783611,
            20.107222
          ],
          [
            -98.781667,
            20.1075
          ],
          [
            -98.778889,
            20.107222
          ],
          [
            -98.78,
            20.103333
          ],
          [
            -98.778333,
            20.1075
          ],
          [
            -98.776389,
            20.106667
          ],
          [
            -98.775278,
            20.106667
          ],
          [
            -98.775278,
            20.104722
          ],
          [
            -98.775278,
            20.102778
          ],
          [
            -98.7725,
            20.102778
          ],
          [
            -98.769444,
            20.102778
          ],
          [
            -98.769167,
            20.100556
          ],
          [
            -98.766944,
            20.101944
          ],
          [
            -98.765278,
            20.101944
          ],
          [
            -98.760833,
            20.102222
          ]
        ]
      }
    }
  ]
}
