{
  "type": "FeatureCollection",
  "name": "RA 09 PITAHAYAS / E. C. DE JUSTICIA (ida)",
  "features": [
    {
      "type": "Feature",
      "properties": {
        "routeId": "tuzobus-ra-09-ida",
        "name": "RA 09 PITAHAYAS / E. C. DE JUSTICIA (ida)",
        "externalId": "RA 09",
        "origin": "COLONIAS DE PACHUCA/HACIENDA LA HERRADURA/ PITAYAS",
        "destination": "Hacienda la Herradura, 42082 Pachuca de Soto, Hgo.",
        "source": "tuzobus_oficial",
        "sourceLabel": "Tuzobus oficial",
        "sourceUrl": "https://p-tuzobus.hidalgo.gob.mx/",
        "routeType": "tuzobus_alimentadora",
        "color": "#2563EB",
        "fare": "$10 aprox.",
        "frequency": "Por confirmar",
        "schedule": "Lunes a Viernes de 05:30 a 22:30 hrs, Sabados de 06:00 a 22:00 hrs y Domingo de 7:00 a 22:00 hrs",
        "status": "validated",
        "updatedAt": "2026-06-06",
        "featureIndex": 0
      },
      "geometry": {
        "type": "LineString",
        "coordinates": [
          [
            -98.7975,
            20.062778
          ],
          [
            -98.797222,
            20.063333
          ],
          [
            -98.7975,
            20.062778
          ],
          [
            -98.796944,
            20.063333
          ],
          [
            -98.796111,
            20.064167
          ],
          [
            -98.796111,
            20.064167
          ],
          [
            -98.794444,
            20.064167
          ],
          [
            -98.793056,
            20.064167
          ],
          [
            -98.790556,
            20.064722
          ],
          [
            -98.789444,
            20.065278
          ],
          [
            -98.787778,
            20.062222
          ]
        ]
      }
    }
  ]
}
