{
  "type": "FeatureCollection",
  "name": "RA 14 NOPANCALCO / E. BICENTENARIO (ida)",
  "features": [
    {
      "type": "Feature",
      "properties": {
        "routeId": "tuzobus-ra-14-ida",
        "name": "RA 14 NOPANCALCO / E. BICENTENARIO (ida)",
        "externalId": "RA 14",
        "origin": "SAN PEDRO NOPANCALCO, EL TEZONTLE, VENTAPRIETA",
        "destination": "Tezontle, Venta Prieta, 42083 Pachuca de Soto, Hgo.",
        "source": "tuzobus_oficial",
        "sourceLabel": "Tuzobus oficial",
        "sourceUrl": "https://p-tuzobus.hidalgo.gob.mx/",
        "routeType": "tuzobus_alimentadora",
        "color": "#2563EB",
        "fare": "$10 aprox.",
        "frequency": "Por confirmar",
        "schedule": "Lunes a Viernes de 05:30 a 22:30 hrs, Sabados de 06:00 a 22:00 hrs y Domingo de 7:00 a 22:00 hrs",
        "status": "validated",
        "updatedAt": "2026-06-06",
        "featureIndex": 0
      },
      "geometry": {
        "type": "LineString",
        "coordinates": [
          [
            -98.796111,
            20.088889
          ],
          [
            -98.795278,
            20.088333
          ],
          [
            -98.793611,
            20.0875
          ],
          [
            -98.794167,
            20.086667
          ],
          [
            -98.795,
            20.085
          ],
          [
            -98.793333,
            20.086111
          ],
          [
            -98.792222,
            20.087778
          ],
          [
            -98.790833,
            20.088611
          ],
          [
            -98.79,
            20.09
          ],
          [
            -98.788611,
            20.089444
          ],
          [
            -98.786944,
            20.088889
          ],
          [
            -98.785833,
            20.086944
          ],
          [
            -98.785833,
            20.083611
          ],
          [
            -98.785833,
            20.084722
          ],
          [
            -98.785278,
            20.091944
          ],
          [
            -98.780556,
            20.090278
          ],
          [
            -98.778889,
            20.089722
          ],
          [
            -98.776389,
            20.089722
          ],
          [
            -98.775,
            20.089444
          ],
          [
            -98.771944,
            20.088611
          ]
        ]
      }
    }
  ]
}
