{
  "type": "FeatureCollection",
  "name": "RA 11 HUIXMÍ / E. C. DE JUSTICIA (ida)",
  "features": [
    {
      "type": "Feature",
      "properties": {
        "routeId": "tuzobus-ra-11-ida",
        "name": "RA 11 HUIXMÍ / E. C. DE JUSTICIA (ida)",
        "externalId": "RA 11",
        "origin": "COLONIAS DE PACHUCA/HACIENDA LA HERRADURA/HACIENDAS HIDALGO/LAS TORRES/SANTA GERTRUDIS/EL HUIXMI",
        "destination": "Hacienda la Herradura, 42082 Pachuca de Soto, Hgo.",
        "source": "tuzobus_oficial",
        "sourceLabel": "Tuzobus oficial",
        "sourceUrl": "https://p-tuzobus.hidalgo.gob.mx/",
        "routeType": "tuzobus_alimentadora",
        "color": "#2563EB",
        "fare": "$10 aprox.",
        "frequency": "Por confirmar",
        "schedule": "Lunes a Viernes de 05:30 a 22:30 hrs, Sabados de 06:00 a 22:00 hrs y Domingo de 7:00 a 22:00 hrs",
        "status": "validated",
        "updatedAt": "2026-06-06",
        "featureIndex": 0
      },
      "geometry": {
        "type": "LineString",
        "coordinates": [
          [
            -98.816111,
            20.070833
          ],
          [
            -98.815278,
            20.072222
          ],
          [
            -98.816944,
            20.073333
          ],
          [
            -98.818333,
            20.073333
          ],
          [
            -98.818333,
            20.075556
          ],
          [
            -98.819444,
            20.075833
          ],
          [
            -98.818333,
            20.076667
          ],
          [
            -98.816389,
            20.077778
          ],
          [
            -98.809444,
            20.084722
          ],
          [
            -98.808056,
            20.085833
          ],
          [
            -98.806667,
            20.086944
          ],
          [
            -98.804444,
            20.088056
          ],
          [
            -98.800556,
            20.09
          ],
          [
            -98.7975,
            20.083056
          ],
          [
            -98.796667,
            20.080833
          ],
          [
            -98.794167,
            20.075556
          ],
          [
            -98.793333,
            20.073889
          ],
          [
            -98.791111,
            20.069444
          ],
          [
            -98.790278,
            20.0675
          ],
          [
            -98.789444,
            20.065556
          ],
          [
            -98.787778,
            20.062222
          ]
        ]
      }
    }
  ]
}
