{
  "type": "FeatureCollection",
  "name": "RA 03 BOSQUES DE MATILDE / E. EFRÉN REBOLLEDO (vuelta)",
  "features": [
    {
      "type": "Feature",
      "properties": {
        "routeId": "tuzobus-ra-03-vuelta",
        "name": "RA 03 BOSQUES DE MATILDE / E. EFRÉN REBOLLEDO (vuelta)",
        "externalId": "RA 03",
        "origin": "REAL TOLEDO, BOSQUES DE MATILDE/MINERAL DEL ORO",
        "destination": "Av. La Principal 2, Matilde, 42119 Pachuca de Soto, Hgo.",
        "source": "tuzobus_oficial",
        "sourceLabel": "Tuzobus oficial",
        "sourceUrl": "https://p-tuzobus.hidalgo.gob.mx/",
        "routeType": "tuzobus_alimentadora",
        "color": "#7C3AED",
        "fare": "$10 aprox.",
        "frequency": "Por confirmar",
        "schedule": "Lunes a Viernes de 05:30 a 22:30 hrs, Sabados de 06:00 a 22:00 hrs y Domingo de 7:00 a 22:00 hrs",
        "status": "validated",
        "updatedAt": "2026-06-06",
        "featureIndex": 0
      },
      "geometry": {
        "type": "LineString",
        "coordinates": [
          [
            -98.797778,
            20.035556
          ],
          [
            -98.776944,
            20.030556
          ],
          [
            -98.7775,
            20.026944
          ],
          [
            -98.779444,
            20.026389
          ],
          [
            -98.7825,
            20.027778
          ],
          [
            -98.783611,
            20.028333
          ],
          [
            -98.786667,
            20.03
          ],
          [
            -98.789444,
            20.031389
          ],
          [
            -98.791944,
            20.032778
          ],
          [
            -98.797778,
            20.035556
          ]
        ]
      }
    }
  ]
}
