{
  "type": "FeatureCollection",
  "name": "RA 08 TUZOS / E. VICENTE SEGURA (ida)",
  "features": [
    {
      "type": "Feature",
      "properties": {
        "routeId": "tuzobus-ra-08-ida",
        "name": "RA 08 TUZOS / E. VICENTE SEGURA (ida)",
        "externalId": "RA 08",
        "origin": "TUZOS/LOS PINOS/TULIPANES/GEO VILLAS/JUAN C. DORIA",
        "destination": "Av Nuevo Pachuca 102, 42000 Pachuca de Soto, Hgo.",
        "source": "tuzobus_oficial",
        "sourceLabel": "Tuzobus oficial",
        "sourceUrl": "https://p-tuzobus.hidalgo.gob.mx/",
        "routeType": "tuzobus_alimentadora",
        "color": "#2563EB",
        "fare": "$10 aprox.",
        "frequency": "Por confirmar",
        "schedule": "Lunes a Viernes de 05:30 a 22:30 hrs, Sabados de 06:00 a 22:00 hrs y Domingo de 7:00 a 22:00 hrs",
        "status": "validated",
        "updatedAt": "2026-06-06",
        "featureIndex": 0
      },
      "geometry": {
        "type": "LineString",
        "coordinates": [
          [
            -98.756667,
            20.052778
          ],
          [
            -98.756944,
            20.051389
          ],
          [
            -98.758056,
            20.051944
          ],
          [
            -98.759167,
            20.051944
          ],
          [
            -98.760278,
            20.052222
          ],
          [
            -98.760833,
            20.051111
          ],
          [
            -98.7625,
            20.051944
          ],
          [
            -98.764444,
            20.0525
          ],
          [
            -98.763889,
            20.054167
          ],
          [
            -98.763333,
            20.055556
          ],
          [
            -98.763056,
            20.0575
          ],
          [
            -98.762778,
            20.058889
          ],
          [
            -98.764167,
            20.059167
          ],
          [
            -98.765556,
            20.059444
          ],
          [
            -98.767778,
            20.059722
          ],
          [
            -98.768889,
            20.06
          ],
          [
            -98.771389,
            20.060556
          ],
          [
            -98.772778,
            20.060833
          ],
          [
            -98.777778,
            20.0625
          ],
          [
            -98.781111,
            20.065556
          ]
        ]
      }
    }
  ]
}
