{
  "type": "FeatureCollection",
  "name": "RA 02-E FRAC. AMORES DE DON JUAN / CETRAM TÉLLEZ (ida)",
  "features": [
    {
      "type": "Feature",
      "properties": {
        "routeId": "tuzobus-ra-02-e-ida",
        "name": "RA 02-E FRAC. AMORES DE DON JUAN / CETRAM TÉLLEZ (ida)",
        "externalId": "RA 02-E",
        "origin": "FRACCIONAMIENTO VIÑEDOS/AMORES DE DON JUAN/PRIVADA PORTOBELLO",
        "destination": "Av. Rebeca, 43845 Privadas Santa Matilde",
        "source": "tuzobus_oficial",
        "sourceLabel": "Tuzobus oficial",
        "sourceUrl": "https://p-tuzobus.hidalgo.gob.mx/",
        "routeType": "tuzobus_alimentadora",
        "color": "#2563EB",
        "fare": "$10 aprox.",
        "frequency": "Por confirmar",
        "schedule": "Lunes a Viernes de 05:30 a 22:30 hrs, Sabados de 06:00 a 22:00 hrs y Domingo de 7:00 a 22:00 hrs",
        "status": "validated",
        "updatedAt": "2026-06-06",
        "featureIndex": 0
      },
      "geometry": {
        "type": "LineString",
        "coordinates": [
          [
            -98.803611,
            20.011111
          ],
          [
            -98.803611,
            20.011111
          ],
          [
            -98.803056,
            20.01
          ],
          [
            -98.799722,
            20.009722
          ],
          [
            -98.796944,
            20.009722
          ],
          [
            -98.794167,
            20.01
          ],
          [
            -98.792222,
            20.009722
          ],
          [
            -98.791944,
            20.010278
          ],
          [
            -98.793333,
            20.011944
          ],
          [
            -98.791667,
            20.011944
          ],
          [
            -98.7875,
            20.011944
          ],
          [
            -98.791667,
            20.013611
          ]
        ]
      }
    }
  ]
}
