{
  "type": "FeatureCollection",
  "name": "RA 09 PITAHAYAS / E. C. DE JUSTICIA (vuelta)",
  "features": [
    {
      "type": "Feature",
      "properties": {
        "routeId": "tuzobus-ra-09-vuelta",
        "name": "RA 09 PITAHAYAS / E. C. DE JUSTICIA (vuelta)",
        "externalId": "RA 09",
        "origin": "COLONIAS DE PACHUCA/HACIENDA LA HERRADURA/ PITAYAS",
        "destination": "Blvrd Hda. de Pitahayas, Pitahayas 1ra Secc, 42082 Pachuca de Soto, Hgo.",
        "source": "tuzobus_oficial",
        "sourceLabel": "Tuzobus oficial",
        "sourceUrl": "https://p-tuzobus.hidalgo.gob.mx/",
        "routeType": "tuzobus_alimentadora",
        "color": "#7C3AED",
        "fare": "$10 aprox.",
        "frequency": "Por confirmar",
        "schedule": "Lunes a Viernes de 05:30 a 22:30 hrs, Sabados de 06:00 a 22:00 hrs y Domingo de 7:00 a 22:00 hrs",
        "status": "validated",
        "updatedAt": "2026-06-06",
        "featureIndex": 0
      },
      "geometry": {
        "type": "LineString",
        "coordinates": [
          [
            -98.783889,
            20.06
          ],
          [
            -98.780833,
            20.058333
          ],
          [
            -98.779167,
            20.057222
          ],
          [
            -98.781389,
            20.055278
          ],
          [
            -98.7875,
            20.062222
          ],
          [
            -98.789722,
            20.065278
          ],
          [
            -98.790556,
            20.065
          ],
          [
            -98.793056,
            20.064167
          ],
          [
            -98.794167,
            20.064167
          ],
          [
            -98.795833,
            20.064444
          ],
          [
            -98.797222,
            20.063333
          ]
        ]
      }
    }
  ]
}
