{
  "type": "FeatureCollection",
  "name": "Tuzobus Troncal Centro - Tellez",
  "features": [
    {
      "type": "Feature",
      "properties": {
        "routeId": "tuzobus-troncal-centro-tellez-oficial",
        "name": "Tuzobus Troncal Centro - Tellez",
        "externalId": "troncal-oficial",
        "origin": "BIOPARQUE",
        "destination": "TÉLLEZ",
        "source": "tuzobus_oficial",
        "sourceLabel": "Tuzobus oficial",
        "sourceUrl": "https://p-tuzobus.hidalgo.gob.mx/",
        "routeType": "tuzobus_troncal",
        "color": "#7A1230",
        "fare": "$10 aprox.",
        "frequency": "Por confirmar",
        "schedule": "Lunes a Viernes de 05:30 a 22:30 hrs, Sabados de 06:00 a 22:00 hrs y Domingo de 7:00 a 22:00 hrs",
        "status": "validated",
        "updatedAt": "2026-06-06",
        "featureIndex": 0
      },
      "geometry": {
        "type": "LineString",
        "coordinates": [
          [
            -98.804444,
            20.012222
          ],
          [
            -98.808611,
            20.024444
          ],
          [
            -98.8025,
            20.030833
          ],
          [
            -98.798889,
            20.035
          ],
          [
            -98.793889,
            20.042222
          ],
          [
            -98.791111,
            20.046944
          ],
          [
            -98.789444,
            20.050278
          ],
          [
            -98.786667,
            20.055556
          ],
          [
            -98.784167,
            20.06
          ],
          [
            -98.784444,
            20.06
          ],
          [
            -98.782222,
            20.064167
          ],
          [
            -98.78,
            20.068333
          ],
          [
            -98.776389,
            20.075
          ],
          [
            -98.774444,
            20.078889
          ],
          [
            -98.7725,
            20.083333
          ],
          [
            -98.771111,
            20.088056
          ],
          [
            -98.770833,
            20.088056
          ],
          [
            -98.770833,
            20.090833
          ],
          [
            -98.768889,
            20.094722
          ],
          [
            -98.765278,
            20.098333
          ],
          [
            -98.760833,
            20.102778
          ],
          [
            -98.751111,
            20.106111
          ],
          [
            -98.754722,
            20.108611
          ],
          [
            -98.750833,
            20.112222
          ],
          [
            -98.747778,
            20.114722
          ],
          [
            -98.7425,
            20.116111
          ],
          [
            -98.739167,
            20.118333
          ],
          [
            -98.734722,
            20.121667
          ],
          [
            -98.7325,
            20.125
          ],
          [
            -98.732778,
            20.125
          ],
          [
            -98.731111,
            20.129167
          ],
          [
            -98.737152,
            20.122716
          ],
          [
            -98.740556,
            20.12
          ],
          [
            -98.744722,
            20.116944
          ]
        ]
      }
    }
  ]
}
