{
"type": "FeatureCollection",
"name": "Tuzobus Troncal 1 (vuelta)",
"description": "Trazo preliminar editable en QGIS. Conserva los campos routeId, direction y stationIds.",
"generatedAt": "2026-08-27",
"features": [
{ "type": "Feature", "properties": { "routeId": "rutashidalgo-tbtroncal1-1-vuelta", "externalId": "TBTroncal1-1-vuelta", "name": "Tuzobus Troncal 1 (vuelta)", "direction": "vuelta", "origin": "Centro Histórico", "destination": "Terminal Téllez", "routeType": "tuzobus_troncal", "status": "preliminary", "stationCount": 28, "stationIds": "station-27,station-26p,station-25p,station-24p,station-23p,station-22,station-21,station-20,station-19p,station-19,station-18,station-17,station-16,station-15p,station-14,station-13,station-12,station-11,station-10,station-09p,station-08,station-07,station-06,station-05,station-04,station-03,station-02,station-01" }, "geometry": { "type": "LineString", "coordinates": [ [ -98.734857482013126, 20.121758587551749 ], [ -98.734671721510068, 20.121802884287089 ], [ -98.734625360769144, 20.121839718848374 ], [ -98.734615358280564, 20.121871949089492 ], [ -98.734626789696136, 20.121913864279918 ], [ -98.734776675769922, 20.122086089678181 ], [ -98.735156445284289, 20.122578156540339 ], [ -98.735313796554635, 20.122802250724455 ], [ -98.735357464911104, 20.122854652752228 ], [ -98.735377115671525, 20.122885948407706 ], [ -98.735380026895285, 20.122913605033474 ], [ -98.735367654194292, 20.122950723136483 ], [ -98.735361103940818, 20.123014770059321 ], [ -98.735362559552698, 20.123075177952451 ], [ -98.735364015164578, 20.123098467742572 ], [ -98.735370565418052, 20.12311811850299 ], [ -98.735393855208173, 20.123167609307 ], [ -98.735424423057708, 20.123190899097121 ], [ -98.735469109459103, 20.123214495077175 ], [ -98.735946709838615, 20.123347909997008 ], [ -98.736057881431208, 20.123381959285762 ], [ -98.736144920040545, 20.123405451229981 ], [ -98.736260933256219, 20.123428679973401 ], [ -98.736349585721484, 20.123422972833481 ], [ -98.736414580573935, 20.123404801634759 ], [ -98.736478693432602, 20.123375000362969 ], [ -98.736556376817816, 20.123302759093033 ], [ -98.736581777671574, 20.123259648722932 ], [ -98.736669012386528, 20.123112739137255 ], [ -98.73673369717892, 20.123042542904834 ], [ -98.737060548916531, 20.12273342223412 ], [ -98.737390668221707, 20.122578244641122 ], [ -98.737434432706209, 20.1225522225152 ], [ -98.738019930539423, 20.122150062387337 ], [ -98.738144031291043, 20.122013761687228 ], [ -98.7388622305767, 20.121513623786285 ], [ -98.739795242321904, 20.12087961577765 ], [ -98.740306605215764, 20.120557328301057 ], [ -98.7403119, 20.1204307 ], [ -98.740605442830685, 20.120342073620577 ], [ -98.740773753671277, 20.120216126733062 ], [ -98.741059283008852, 20.120006587976093 ], [ -98.741589318652373, 20.119640563658109 ], [ -98.741660269279336, 20.119596597408648 ], [ -98.742544277487269, 20.118986591842159 ], [ -98.743445287614364, 20.118375065166774 ], [ -98.744788254522504, 20.117191832843041 ], [ -98.7449422, 20.1170057 ], [ -98.745992534701202, 20.116415965645253 ], [ -98.746258168136691, 20.116308338305011 ], [ -98.746417319203644, 20.116271699210461 ], [ -98.748005343128582, 20.114922703632573 ], [ -98.748502735455034, 20.11453337571038 ], [ -98.748877260034178, 20.114235828515092 ], [ -98.750343427178976, 20.113141346569886 ], [ -98.750686228554784, 20.112885763629009 ], [ -98.750895764103475, 20.112642004627439 ], [ -98.751377544675179, 20.112123391461978 ], [ -98.753108055477625, 20.110480220383522 ], [ -98.75389263265923, 20.109741533565369 ], [ -98.754700895189714, 20.108982122066948 ], [ -98.755155357821323, 20.108558746455742 ], [ -98.756388617088177, 20.107381556559201 ], [ -98.757154004289802, 20.106676330797001 ], [ -98.757909364584876, 20.105910943595369 ], [ -98.758730365167693, 20.105108087190985 ], [ -98.760338008222831, 20.103503404804457 ], [ -98.760631114415204, 20.103232503626657 ], [ -98.76115071175623, 20.102690701271058 ], [ -98.76149710998358, 20.102333940703573 ], [ -98.762141055406218, 20.101687034612326 ], [ -98.762636967398365, 20.101201484960313 ], [ -98.762833851860918, 20.101017923506504 ], [ -98.763227620786026, 20.100683367953593 ], [ -98.763649516062927, 20.100289599028486 ], [ -98.763951504261129, 20.09995356314127 ], [ -98.764328989508883, 20.099596802573785 ], [ -98.764704994422331, 20.09924892401213 ], [ -98.765366315822135, 20.098663539805589 ], [ -98.76565564446939, 20.098371455647381 ], [ -98.765987683536025, 20.098071104956407 ], [ -98.766469897948141, 20.097613690142637 ], [ -98.76699620053509, 20.097176941660805 ], [ -98.767237307741155, 20.096981300385028 ], [ -98.767647878869184, 20.096573484767923 ], [ -98.768183825744345, 20.096045804425518 ], [ -98.768646751579965, 20.09556910103526 ], [ -98.769086255572731, 20.095130974797968 ], [ -98.769505093233533, 20.094695604071592 ], [ -98.769800305099849, 20.094414152172277 ], [ -98.770155585333029, 20.093990776561071 ], [ -98.770302138429216, 20.093731718057711 ], [ -98.770500503226074, 20.093163269684624 ], [ -98.770614488967553, 20.092683641369831 ], [ -98.770750679723605, 20.09200564825818 ], [ -98.770860224462169, 20.091272882777247 ], [ -98.770960887194903, 20.09078289212232 ], [ -98.770986052878087, 20.090665945712232 ], [ -98.771040825247368, 20.090446856235104 ], [ -98.771117802631224, 20.090013118283764 ], [ -98.771150369985932, 20.089762941786233 ], [ -98.771196260349384, 20.089046459982654 ], [ -98.77119181934647, 20.088633446711583 ], [ -98.771314687093778, 20.088104967364728 ], [ -98.771348734782791, 20.087996902960469 ], [ -98.771399066149158, 20.087967296274371 ], [ -98.771507130553417, 20.087801498832221 ], [ -98.7715964332927, 20.087380024287075 ], [ -98.771666055181882, 20.087074759080583 ], [ -98.771810654490224, 20.086282140649693 ], [ -98.771899419144219, 20.085610604060946 ], [ -98.772075578926504, 20.085080644379786 ], [ -98.772198446673812, 20.084754970832705 ], [ -98.772392370467756, 20.084260539174863 ], [ -98.772593695933224, 20.083724658156484 ], [ -98.7726765946543, 20.083512970350881 ], [ -98.772784659058559, 20.083298321876669 ], [ -98.772910487474476, 20.0830066960186 ], [ -98.773120694945774, 20.082620328765017 ], [ -98.773317579408328, 20.082199913822421 ], [ -98.773883067112806, 20.081036371058758 ], [ -98.774213181662802, 20.080364299284327 ], [ -98.774341970747329, 20.080102280112357 ], [ -98.774387861110782, 20.079889111972449 ], [ -98.77450480752087, 20.079561958091062 ], [ -98.775027365530505, 20.07847687304556 ], [ -98.775289384702475, 20.078130474818209 ], [ -98.775998464834529, 20.076696030876747 ], [ -98.776202750968608, 20.076308183288859 ], [ -98.776291571026903, 20.075954383389984 ], [ -98.776328579384526, 20.075824113971152 ], [ -98.776738631986987, 20.075021772777887 ], [ -98.776969564138554, 20.07462800385278 ], [ -98.777230102976219, 20.074364504346505 ], [ -98.777551335520386, 20.073747204941355 ], [ -98.777891812410516, 20.073081054504144 ], [ -98.778146429910962, 20.072602906523656 ], [ -98.778455819780689, 20.072015213804605 ], [ -98.778618656554229, 20.071711745272097 ], [ -98.778954692441445, 20.071064839180849 ], [ -98.779863617704663, 20.069340249715623 ], [ -98.77992579174547, 20.069178893276387 ], [ -98.779977603446142, 20.068986449816748 ], [ -98.780035336484033, 20.068811770368768 ], [ -98.780330488691931, 20.068263346017488 ], [ -98.78069704591833, 20.067589014232908 ], [ -98.780864323694786, 20.067269262023046 ], [ -98.78105232615151, 20.066897698112513 ], [ -98.781338030672359, 20.066364777762743 ], [ -98.781601530178634, 20.065855542761852 ], [ -98.782050071473023, 20.065011752208051 ], [ -98.782548944133779, 20.064055456247075 ], [ -98.782917547375703, 20.063328612103362 ], [ -98.78331723763803, 20.062647658323101 ], [ -98.783540768118073, 20.062277574746872 ], [ -98.783783542944079, 20.06188824682468 ], [ -98.784128460837124, 20.061204332375809 ], [ -98.784351991317166, 20.060730625398236 ], [ -98.784442291709766, 20.060507094918194 ], [ -98.784704310881736, 20.060064474961024 ], [ -98.78507291412366, 20.059342071820225 ], [ -98.785367500650338, 20.058836537655097 ], [ -98.785645803499662, 20.058302136971022 ], [ -98.786234976553018, 20.057184484570811 ], [ -98.786277906247861, 20.057094184178212 ], [ -98.786394852657949, 20.056703375921714 ], [ -98.786640116889757, 20.056225567752623 ], [ -98.787140941147626, 20.055468777111415 ], [ -98.787761201221386, 20.054191248606273 ], [ -98.788243790204788, 20.053169817935881 ], [ -98.789066171951859, 20.051571612236099 ], [ -98.789395490294012, 20.050885662103397 ], [ -98.789670832474727, 20.05038975011125 ], [ -98.789709321166654, 20.05031129239309 ], [ -98.790055719394005, 20.04960961393256 ], [ -98.790308856560145, 20.049113701940414 ], [ -98.790757397854534, 20.048258068712173 ], [ -98.791133402767983, 20.047577114931912 ], [ -98.791429469628966, 20.047032351907703 ], [ -98.791651519774703, 20.046616377968022 ], [ -98.791935743961247, 20.046058291935068 ], [ -98.792929048279845, 20.044172346030606 ], [ -98.79336130589688, 20.043393690186221 ], [ -98.793657372757863, 20.042858549334994 ], [ -98.794003770985213, 20.042356716005628 ], [ -98.794293916508977, 20.041943702734557 ], [ -98.794610708050229, 20.041515886120436 ], [ -98.794794269504038, 20.041278292464497 ], [ -98.798268614117674, 20.036245155827785 ], [ -98.798548397301303, 20.03590615927196 ], [ -98.798743801429552, 20.035588627563556 ], [ -98.798988056589863, 20.035289600033963 ], [ -98.799356659831787, 20.03489139010594 ], [ -98.799608316663623, 20.034586441239128 ], [ -98.799871816169897, 20.034339225410207 ], [ -98.799947313219448, 20.034300736718279 ], [ -98.800960206264435, 20.033148189332078 ], [ -98.801880135153056, 20.032085018920995 ], [ -98.80218890021257, 20.031690308948015 ], [ -98.802682844729162, 20.031110220571275 ] ] } }
]
}
