{
"type": "FeatureCollection",
"name": "Tuzobus Troncal 1 - estaciones",
"description": "Estaciones editables en QGIS. GeoJSON WGS84 (EPSG:4326).",
"generatedAt": "2026-08-27",
"features": [
{ "type": "Feature", "properties": { "id": "station-01-salida", "type": "station", "name": "TÉLLEZ SALIDA", "subtitle": "Estacion 01s", "address": "Blvd Tellez, Zempoala, Hidalgo.", "status": "Activa", "directions": "vuelta" }, "geometry": { "type": "Point", "coordinates": [ -98.804598153521908, 20.012582382047292 ] } },
{ "type": "Feature", "properties": { "id": "station-02", "type": "station", "name": "GABRIEL MANCERA", "subtitle": "Estacion 02", "address": "El Mirador CP.43845, Zempoala, Hidalgo.", "status": "Activa", "directions": "ida,vuelta" }, "geometry": { "type": "Point", "coordinates": [ -98.808838941221921, 20.02464525621447 ] } },
{ "type": "Feature", "properties": { "id": "station-03", "type": "station", "name": "MATILDE", "subtitle": "Estacion 03", "address": "Carretera Federal México-Pachuca, Km. 79+000, casi esquina con Ley Agraria, Col. Santa María Matilde, C.P. 42119, Pachuca de Soto, Hidalgo", "status": "Activa", "directions": "ida,vuelta" }, "geometry": { "type": "Point", "coordinates": [ -98.8026462, 20.0310958 ] } },
{ "type": "Feature", "properties": { "id": "station-04", "type": "station", "name": "EFRÉN REBOLLEDO", "subtitle": "Estacion 04", "address": "Carretera Federal México-Pachuca, Km. 79+600, casi esquina con Av. La Principal, Col. Santa María Matilde, C.P. 42119, Pachuca de Soto, Hidalgo", "status": "Activa", "directions": "ida,vuelta" }, "geometry": { "type": "Point", "coordinates": [ -98.7992131, 20.034986 ] } },
{ "type": "Feature", "properties": { "id": "station-05", "type": "station", "name": "TERCERA EDAD", "subtitle": "Estacion 05", "address": "Carretera Federal México-Pachuca, Km. 80+600, Cruce con camino a Palma Gorda, Barrio La Palma, C.P. 42110, Pachuca de Soto, Hidalgo.", "status": "Activa", "directions": "ida,vuelta" }, "geometry": { "type": "Point", "coordinates": [ -98.7940472, 20.0422104 ] } },
{ "type": "Feature", "properties": { "id": "station-06", "type": "station", "name": "SAN ANTONIO", "subtitle": "Estacion 06", "address": "Carretera Federal México-Pachuca, Km. 81+200, esquina con De Los Gurriones, Colonia. San Antonio el Desmonte, C.P. 42083, Pachuca de Soto, Hidalgo.", "status": "Activa", "directions": "ida,vuelta" }, "geometry": { "type": "Point", "coordinates": [ -98.791325, 20.0470344 ] } },
{ "type": "Feature", "properties": { "id": "station-07", "type": "station", "name": "EJÉRCITO MEXICANO", "subtitle": "Estacion 07", "address": "Carretera Federal México-Pachuca, Km. 81+620, entre Hidalgo y Manuel Vargas Cataño, Colonia. San Antonio el Desmonte, C.P. 42083, Pachuca de Soto, Hidalgo.", "status": "Activa", "directions": "ida,vuelta" }, "geometry": { "type": "Point", "coordinates": [ -98.78960569776531, 20.050345340082103 ] } },
{ "type": "Feature", "properties": { "id": "station-08", "type": "station", "name": "FELIPE ÁNGELES", "subtitle": "Estacion 08", "address": "Carretera Federal México-Pachuca, Km. 82+330, entre Avenida. De Las Aves y Boulevard. Nuevo Hidalgo, Fraccionamiento. Villas de Pachuca, C.P. 42083, Pachuca de Soto, Hidalgo.", "status": "Activa", "directions": "ida,vuelta" }, "geometry": { "type": "Point", "coordinates": [ -98.7865994, 20.0562113 ] } },
{ "type": "Feature", "properties": { "id": "station-09o", "type": "station", "name": "CENTRO DE JUSTICIA ORIENTE", "subtitle": "Estacion 09o", "address": "Blvd. Felipe Ángeles, Km.82+830, casi esquina con Avenida.Los Prismas, Fraccionamiento. Los Prismas, C.P. 42083, Pachuca de Soto, Hidalgo.", "status": "Activa", "directions": "ida" }, "geometry": { "type": "Point", "coordinates": [ -98.784640540684705, 20.060049649023949 ] } },
{ "type": "Feature", "properties": { "id": "station-09p", "type": "station", "name": "CENTRO DE JUSTICIA PONIENTE", "subtitle": "Estacion 09p", "address": "Blvd. Felipe Ángeles, Km.82+830, casi esquina con Avenida. Los Prismas, Fraccionamiento. Los Prismas, C.P. 42083, Pachuca de Soto, Hidalgo.", "status": "Activa", "directions": "vuelta" }, "geometry": { "type": "Point", "coordinates": [ -98.784555734200978, 20.060000251432918 ] } },
{ "type": "Feature", "properties": { "id": "station-10", "type": "station", "name": "VICENTE SEGURA", "subtitle": "Estacion 10", "address": "Blvd. Felipe Ángeles, Km.83+330, frente a estacionamiento de la Feria, Fraccionamiento. SPAUAH, C.P. 42082, Pachuca de Soto, Hidalgo.", "status": "Activa", "directions": "ida,vuelta" }, "geometry": { "type": "Point", "coordinates": [ -98.7824302, 20.0641419 ] } },
{ "type": "Feature", "properties": { "id": "station-11", "type": "station", "name": "JUAN C. DORIA", "subtitle": "Estacion 11", "address": "Blvd. Felipe Ángeles, Km.83+850, entre Justino Fernández y Gral. Rafael Cravioto, Fraccionamiento. Pachoacan, C.P. 42083, Pachuca de Soto, Hidalgo.", "status": "Activa", "directions": "ida,vuelta" }, "geometry": { "type": "Point", "coordinates": [ -98.780292, 20.0682367 ] } },
{ "type": "Feature", "properties": { "id": "station-12", "type": "station", "name": "HOSPITALES", "subtitle": "Estacion 12", "address": ". Blvd. Felipe Ángeles, Km.84+720, entre Río Papaloapan y Río Yaqui, Unidad habitacional ISSSTE, C.P. 42083, Pachuca de Soto, Hidalgo.", "status": "Activa", "directions": "ida,vuelta" }, "geometry": { "type": "Point", "coordinates": [ -98.7765829, 20.075227 ] } },
{ "type": "Feature", "properties": { "id": "station-13", "type": "station", "name": "SEPH", "subtitle": "Estacion 13", "address": ". Blvd. Felipe Ángeles, Km.85+190, frente a SEPH y Club de Golf Pachuca, Ejido Venta Prieta, C.P. 42083, Pachuca de Soto, Hidalgo.", "status": "Activa", "directions": "ida,vuelta" }, "geometry": { "type": "Point", "coordinates": [ -98.7746913, 20.0790519 ] } },
{ "type": "Feature", "properties": { "id": "station-14", "type": "station", "name": "TECNOLÓGICO", "subtitle": "Estacion 14", "address": ". Blvd. Felipe Ángeles, Km.85+710, Col. Venta Prieta, C.P. 42083, Pachuca de Soto, Hidalgo.", "status": "Activa", "directions": "ida,vuelta" }, "geometry": { "type": "Point", "coordinates": [ -98.7727137, 20.0832892 ] } },
{ "type": "Feature", "properties": { "id": "station-15p", "type": "station", "name": "BICENTENARIO PONIENTE", "subtitle": "Estacion 15p", "address": "Blvd. Felipe Ángeles, Km.86+310, Col. Venta Prieta, C.P. 42083, Pachuca de Soto, Hidalgo.", "status": "Activa", "directions": "vuelta" }, "geometry": { "type": "Point", "coordinates": [ -98.7709151, 20.0882927 ] } },
{ "type": "Feature", "properties": { "id": "station-15o", "type": "station", "name": "BICENTENARIO ORIENTE", "subtitle": "Estacion 15o", "address": "Blvd. Felipe Ángeles, Km.86+310, Col. Venta Prieta, C.P. 42083, Pachuca de Soto, Hidalgo.", "status": "Activa", "directions": "ida" }, "geometry": { "type": "Point", "coordinates": [ -98.771241, 20.088365 ] } },
{ "type": "Feature", "properties": { "id": "station-16", "type": "station", "name": "CENTRO MINERO", "subtitle": "Estacion 16", "address": "Blvd. Felipe Ángeles, Km.86+580, frente a zona comercial Plaza Peri sur, Col. Venta Prieta, C.P. 42083, Pachuca de Soto, Hidalgo.", "status": "Activa", "directions": "ida,vuelta" }, "geometry": { "type": "Point", "coordinates": [ -98.7709077, 20.0907906 ] } },
{ "type": "Feature", "properties": { "id": "station-17", "type": "station", "name": "ZONA PLATEADA", "subtitle": "Estacion 17", "address": "Blvd. Felipe Ángeles, Km.87+000, casi esquina con Camino Real de la Plata, Ejido Venta Prieta, C.P. 42083, Pachuca de Soto, Hidalgo.", "status": "Activa", "directions": "ida,vuelta" }, "geometry": { "type": "Point", "coordinates": [ -98.7697364, 20.0943803 ] } },
{ "type": "Feature", "properties": { "id": "station-18", "type": "station", "name": "TECLÓGICO DE MONTERREY", "subtitle": "Estacion 18", "address": "Blvd. Felipe Ángeles, Km.87+600, frente a Tecnológico de Monterrey, Ejido Venta Prieta, C.P. 42083, Pachuca de Soto, Hidalgo..", "status": "Activa", "directions": "ida,vuelta" }, "geometry": { "type": "Point", "coordinates": [ -98.7657939, 20.0981682 ] } },
{ "type": "Feature", "properties": { "id": "station-19", "type": "station", "name": "ESTADIO HIDALGO", "subtitle": "Estacion 19", "address": "Blvd. Felipe Ángeles, Km.88+375, frente a CECATI, Fraccionamiento Jaime Torres Bodet, C.P. 42064, Pachuca de Soto, Hidalgo.", "status": "Activa", "directions": "ida,vuelta" }, "geometry": { "type": "Point", "coordinates": [ -98.7606833, 20.1030846 ] } },
{ "type": "Feature", "properties": { "id": "station-19p", "type": "station", "name": "CENTRAL DE AUTOBUSES", "subtitle": "Estacion 19p", "address": "Blvd. Javier Rojo Gómez SN, Ex-hacienda de Coscotitlán, C.P.42086, Pachuca de Soto, Hidalgo.", "status": "Activa", "directions": "ida,vuelta" }, "geometry": { "type": "Point", "coordinates": [ -98.7518132, 20.1062774 ] } },
{ "type": "Feature", "properties": { "id": "station-20", "type": "station", "name": "CUNA DE FUTBOL", "subtitle": "Estacion 20", "address": "Blvd. Felipe Ángeles, Km.89+240, frente a Poli fórum José M. Morelos, Fraccionamiento. Ex-Hacienda de Coscotitlán, C.P. 42064, Pachuca de Soto, Hidalgo.", "status": "Activa", "directions": "ida,vuelta" }, "geometry": { "type": "Point", "coordinates": [ -98.7548777, 20.1087262 ] } },
{ "type": "Feature", "properties": { "id": "station-21", "type": "station", "name": "SANTA JULIA", "subtitle": "Estacion 21", "address": "Av. Benito Juárez, Km.89+840, con esquina a Cuesco, Colonia Cuesco, C.P.42064, Pachuca de Soto, Hidalgo.", "status": "Activa", "directions": "ida,vuelta" }, "geometry": { "type": "Point", "coordinates": [ -98.75084559406973, 20.11263753757223 ] } },
{ "type": "Feature", "properties": { "id": "station-22", "type": "station", "name": "PREPA 1", "subtitle": "Estacion 22", "address": "Av. Benito Juárez, km.90+210, frente a Preparatoria No. 1, Colonia Cuesco, C.P. 42064, Pachuca de Soto, Hidalgo.", "status": "Activa", "directions": "ida,vuelta" }, "geometry": { "type": "Point", "coordinates": [ -98.7481656, 20.1147157 ] } },
{ "type": "Feature", "properties": { "id": "station-23o", "type": "station", "name": "REVOLUCIÓN", "subtitle": "Estacion 23o", "address": "Av. Revolución, entre calle Jaime Nunó y Quinta Mary, Colonia Revolución, C.P. 42060, Pachuca de Soto, Hidalgo.", "status": "Activa", "directions": "ida" }, "geometry": { "type": "Point", "coordinates": [ -98.742651, 20.1161981 ] } },
{ "type": "Feature", "properties": { "id": "station-24o", "type": "station", "name": "MANUEL DUBLÁN", "subtitle": "Estacion 24o", "address": "Av. Revolución, entre calle Manuel Dublán y Jesús Silva, Col. Revolución, C.P. 42060, Pachuca de Soto, Hidalgo.", "status": "Activa", "directions": "ida" }, "geometry": { "type": "Point", "coordinates": [ -98.739235, 20.1185629 ] } },
{ "type": "Feature", "properties": { "id": "station-25o", "type": "station", "name": "PRESIDENTE ALEMÁN", "subtitle": "Estacion 25o", "address": "Av. Revolución, esquina con calle Belisario Domínguez, Col. Centro, C.P. 42000, Pachuca de Soto, Hidalgo", "status": "Activa", "directions": "ida" }, "geometry": { "type": "Point", "coordinates": [ -98.7348571, 20.1217586 ] } },
{ "type": "Feature", "properties": { "id": "station-26", "type": "station", "name": "NIÑOS HÉROES ORIENTE", "subtitle": "Estacion 26", "address": "Calle Mariano Matamoros, entre calle Guadalupe Victoria e Ignacio Allende, Colonia. Centro, C.P. 42000, Pachuca de Soto, Hidalgo.", "status": "Activa", "directions": "ida" }, "geometry": { "type": "Point", "coordinates": [ -98.7326966, 20.1251067 ] } },
{ "type": "Feature", "properties": { "id": "station-26p", "type": "station", "name": "NIÑOS HEROES PONIENTE", "subtitle": "Estacion 26p", "address": ". Calle Mariano Matamoros, entre calle Guadalupe Victoria e Ignacio Allende, Colonia Centro, C.P. 42000, Pachuca de Soto, Hidalgo.", "status": "Activa", "directions": "vuelta" }, "geometry": { "type": "Point", "coordinates": [ -98.7330073, 20.1250411 ] } },
{ "type": "Feature", "properties": { "id": "station-27", "type": "station", "name": "CENTRO HISTÓRICO", "subtitle": "Estacion 27", "address": "Calle Ignacio Allende, entre calle Julián Villagrán y Bravo, Colonia Centro, C.P. 42000, Pachuca de Soto, Hidalgo.", "status": "Activa", "directions": "ida,vuelta" }, "geometry": { "type": "Point", "coordinates": [ -98.7313369, 20.1292172 ] } },
{ "type": "Feature", "properties": { "id": "station-25p", "type": "station", "name": "PLAZA JUÁREZ", "subtitle": "Estacion 25p", "address": "Av. Benito Juárez, esquina con calle C. Gómez Pérez, Colonia Centro, C.P. 42000, Pachuca de Soto, Hidalgo.", "status": "Activa", "directions": "vuelta" }, "geometry": { "type": "Point", "coordinates": [ -98.737052, 20.1227069 ] } },
{ "type": "Feature", "properties": { "id": "station-24p", "type": "station", "name": "PARQUE DEL MAESTRO", "subtitle": "Estacion 24p", "address": "Av. Benito Juárez, entre calle General. Ignacio Mejía y Manuel Dublán, Colonia Centro, C.P. 42000, Pachuca de Soto, Hidalgo.", "status": "Activa", "directions": "vuelta" }, "geometry": { "type": "Point", "coordinates": [ -98.7403119, 20.1204307 ] } },
{ "type": "Feature", "properties": { "id": "station-23p", "type": "station", "name": "BIOPARQUE", "subtitle": "Estacion 23p", "address": "Av. Benito Juárez, esquina con calle 16 de enero, Colonia Maestranza, C.P. 42060, Pachuca de Soto, Hidalgo", "status": "Activa", "directions": "vuelta" }, "geometry": { "type": "Point", "coordinates": [ -98.7449422, 20.1170057 ] } },
{ "type": "Feature", "properties": { "id": "station-01-arribo", "type": "station", "name": "TÉLLEZ ARRIBO", "subtitle": "Estacion 01a", "address": "Blvd Tellez, Zempoala, Hidalgo.", "status": "Activa", "directions": "ida" }, "geometry": { "type": "Point", "coordinates": [ -98.804250274960253, 20.011939916958958 ] } }
]
}
