{
"type": "FeatureCollection",
"name": "Tuzobus Troncal 1 (ida)",
"description": "Trazo preliminar editable en QGIS. Conserva los campos routeId, direction y stationIds.",
"generatedAt": "2026-08-27",
"features": [
{ "type": "Feature", "properties": { "routeId": "rutashidalgo-tbtroncal1-1", "externalId": "TBTroncal1-1-ida", "name": "Tuzobus Troncal 1 (ida)", "direction": "ida", "origin": "Terminal Téllez", "destination": "Centro Histórico", "routeType": "tuzobus_troncal", "status": "preliminary", "stationCount": 28, "stationIds": "station-01,station-02,station-03,station-04,station-05,station-06,station-07,station-08,station-09o,station-10,station-11,station-12,station-13,station-14,station-15o,station-16,station-17,station-18,station-19,station-19p,station-20,station-21,station-22,station-23o,station-24o,station-25o,station-26,station-27" }, "geometry": { "type": "LineString", "coordinates": [ [ -98.804604907224558, 20.012636998049899 ], [ -98.805002004556187, 20.012630631760015 ], [ -98.808217776735248, 20.018100866345165 ], [ -98.808347489891673, 20.01822660057044 ], [ -98.808448952636823, 20.018380187313948 ], [ -98.808521369184234, 20.018458970151318 ], [ -98.808616863532535, 20.018624493688371 ], [ -98.80879193650442, 20.018947582900122 ], [ -98.808973375766186, 20.019264305821984 ], [ -98.809193012767281, 20.019614451765751 ], [ -98.810455129737306, 20.021775807182291 ], [ -98.810755936934456, 20.02215460143055 ], [ -98.81088326273219, 20.022320124967603 ], [ -98.811088575581039, 20.022643214179357 ], [ -98.811072659856322, 20.022767356832148 ], [ -98.810257774750824, 20.023448549850023 ], [ -98.809942643401484, 20.023688081507004 ], [ -98.809738922125106, 20.023821773594623 ], [ -98.809326704854939, 20.024175102683337 ], [ -98.80809204251004, 20.025198284836033 ], [ -98.807681416812343, 20.025515007757896 ], [ -98.806995449077064, 20.026119805297135 ], [ -98.806330171783898, 20.026750067995916 ], [ -98.805968884832822, 20.027190933570573 ], [ -98.805311565402008, 20.027910324327767 ], [ -98.805079195821136, 20.028198398945143 ], [ -98.804511004448742, 20.028841394223701 ], [ -98.804127435483068, 20.029291809233186 ], [ -98.803411227870797, 20.030098736476326 ], [ -98.802986278020853, 20.030630321681869 ], [ -98.802511989424289, 20.031196921481783 ], [ -98.802052348601038, 20.03170497051461 ], [ -98.801800691769202, 20.031924059991738 ], [ -98.801482695958555, 20.032303303922529 ], [ -98.800361784484309, 20.033554050702662 ], [ -98.799791878117432, 20.034203034654155 ], [ -98.799634962681111, 20.034438407808636 ], [ -98.799201224729771, 20.034937280469393 ], [ -98.798711234074844, 20.035499807505261 ], [ -98.798558759641438, 20.035638958929923 ], [ -98.7984270098883, 20.035767007847298 ], [ -98.798233086094356, 20.036043830362317 ], [ -98.796459149457462, 20.038610157863111 ], [ -98.795090471064938, 20.040580304673412 ], [ -98.794532179249586, 20.04136797219585 ], [ -98.794353129881173, 20.04170684924577 ], [ -98.792912764602491, 20.043831128973324 ], [ -98.792847629893075, 20.043939193377582 ], [ -98.791299032938824, 20.046982465877644 ], [ -98.790557552723371, 20.048355770776297 ], [ -98.790262966196693, 20.048893132128981 ], [ -98.789552405730333, 20.050309812058785 ], [ -98.78888001559956, 20.051570863317519 ], [ -98.787957102966814, 20.053343115243013 ], [ -98.787284123297937, 20.054619829084327 ], [ -98.786881633849646, 20.055381529545581 ], [ -98.786730159326083, 20.055740740558562 ], [ -98.786583170586752, 20.056187496860588 ], [ -98.786386095765451, 20.056556539063944 ], [ -98.786204326337199, 20.056781586927496 ], [ -98.786018229065419, 20.057028274008701 ], [ -98.785224069777684, 20.058627412192983 ], [ -98.785149891507515, 20.058709228904874 ], [ -98.785038866434647, 20.058912034704647 ], [ -98.784958928382181, 20.059145927524824 ], [ -98.784688027204382, 20.059654422358562 ], [ -98.784618451492051, 20.059796534451834 ], [ -98.784516308425012, 20.059981576239949 ], [ -98.784257249921652, 20.060493771909449 ], [ -98.783970065066498, 20.060945273872449 ], [ -98.783283189949017, 20.062286456752702 ], [ -98.782393509031763, 20.064073220258734 ], [ -98.781724397925942, 20.065327063414998 ], [ -98.780572697836718, 20.067578651892774 ], [ -98.780469074435373, 20.067828828390304 ], [ -98.780144881222597, 20.068438726123929 ], [ -98.779873980044798, 20.068902070761368 ], [ -98.779697820262513, 20.069147806255984 ], [ -98.779418037078884, 20.069670364265619 ], [ -98.778668987920597, 20.071174383919413 ], [ -98.778242651640781, 20.071997449792946 ], [ -98.776838590907644, 20.07439415571347 ], [ -98.776728269646853, 20.07471238290816 ], [ -98.776632047917033, 20.075073584478559 ], [ -98.776384832088112, 20.075538409450303 ], [ -98.776216073977352, 20.075864082997384 ], [ -98.775897802101795, 20.076334829306347 ], [ -98.775425575458527, 20.077289644933018 ], [ -98.775151713612118, 20.077868455646239 ], [ -98.775027365530505, 20.0781275141496 ], [ -98.774914860123332, 20.078515361737487 ], [ -98.774470759831857, 20.079446492015279 ], [ -98.774264993363474, 20.079806213251373 ], [ -98.77416136996213, 20.079943884341731 ], [ -98.774044423552041, 20.080134847467065 ], [ -98.77345080949577, 20.081393131626243 ], [ -98.773286492387925, 20.081852035260766 ], [ -98.772837951093535, 20.082876426599768 ], [ -98.772803903404522, 20.083020019027344 ], [ -98.772629223956542, 20.083393063272183 ], [ -98.77250191520632, 20.083680248127337 ], [ -98.772352401441523, 20.083894896601549 ], [ -98.772272463389058, 20.083991118331369 ], [ -98.771789874405655, 20.084938532286515 ], [ -98.77083653911329, 20.087002118307566 ], [ -98.770815799119816, 20.087773927009877 ], [ -98.770861704796474, 20.088060557335581 ], [ -98.770894272151182, 20.08834034051921 ], [ -98.770919437834365, 20.08859643835396 ], [ -98.770977913823657, 20.08973430664863 ], [ -98.771013735465701, 20.090146255532122 ], [ -98.770961380758095, 20.090315719454097 ], [ -98.770866145799388, 20.09078289212232 ], [ -98.770796050102504, 20.091205749483315 ], [ -98.770596724955894, 20.092343164479701 ], [ -98.770388234485424, 20.09322691674782 ], [ -98.770228414851715, 20.093626465832148 ], [ -98.769990063156584, 20.094028770427396 ], [ -98.769929094184377, 20.094143250994478 ], [ -98.769729249053213, 20.094326812448287 ], [ -98.769538285927879, 20.094526657579451 ], [ -98.768354667421789, 20.095781275376584 ], [ -98.767942718538308, 20.096202868548318 ], [ -98.767518369855637, 20.096636861519222 ], [ -98.766764737617279, 20.097248584944879 ], [ -98.76566576874194, 20.098245354305938 ], [ -98.765006982620534, 20.098904006119085 ], [ -98.763870085874359, 20.099955043475575 ], [ -98.763465954609117, 20.100271835016827 ], [ -98.762660652747243, 20.101100822227579 ], [ -98.761183279110938, 20.10256191218653 ], [ -98.760755462496817, 20.102948279440113 ], [ -98.760229943818572, 20.103496003132932 ], [ -98.759645211768131, 20.104094058192118 ], [ -98.759125614427106, 20.104621057204668 ], [ -98.75851867736209, 20.105222072932463 ], [ -98.757911891475274, 20.105813563933737 ], [ -98.756321373151252, 20.107328994878291 ], [ -98.75128724428258, 20.112138194805027 ], [ -98.75066402354021, 20.11278065989336 ], [ -98.750515343129933, 20.112906094993537 ], [ -98.748158791471027, 20.114700380809829 ], [ -98.746661303907345, 20.115852107433703 ], [ -98.746502940566401, 20.115893706554449 ], [ -98.746318100962242, 20.115857241598526 ], [ -98.746069133332199, 20.115731500371215 ], [ -98.745929560569877, 20.115637194450731 ], [ -98.745758539618578, 20.115585327010255 ], [ -98.744596961336214, 20.115658107604389 ], [ -98.743428889624937, 20.115735407165971 ], [ -98.7432068394792, 20.115785738532338 ], [ -98.742998112342207, 20.115918968619781 ], [ -98.739196613847184, 20.118555444016835 ], [ -98.738785080910418, 20.118839668203378 ], [ -98.738046394092265, 20.119492495631846 ], [ -98.736247091921143, 20.120736212641031 ], [ -98.736165329505951, 20.120719270120379 ], [ -98.736066347897932, 20.120722181344142 ], [ -98.735997934139448, 20.120761482864975 ], [ -98.735960088230499, 20.120806606833337 ], [ -98.735954265782979, 20.120860464472994 ], [ -98.735925153545324, 20.120930333843361 ], [ -98.735842176312246, 20.121046846652007 ], [ -98.735398076020772, 20.121354756187429 ], [ -98.735094607488264, 20.121559042321508 ], [ -98.734984339282462, 20.121653945984303 ], [ -98.734672513810764, 20.121864089236968 ], [ -98.73450643285301, 20.12197085556695 ], [ -98.734286121378432, 20.122118294784546 ], [ -98.734187828566704, 20.122172525301366 ], [ -98.734030221127242, 20.122208114078031 ], [ -98.733321835001306, 20.122340300962772 ], [ -98.73309813411943, 20.122419952034349 ], [ -98.732991367789438, 20.122536886586236 ], [ -98.732989673085797, 20.122675852285578 ], [ -98.733099828823114, 20.12450104811721 ], [ -98.733094744712162, 20.12457222567053 ], [ -98.733050682417257, 20.124672213185914 ], [ -98.732465162306127, 20.125340773776063 ], [ -98.732052501967161, 20.125879689536916 ], [ -98.731974545599229, 20.126110169233385 ], [ -98.731764402346556, 20.126733820176785 ], [ -98.731584763759614, 20.127359165823833 ], [ -98.731373773155127, 20.127830293438688 ], [ -98.731321237342087, 20.127916723324876 ], [ -98.731075505312745, 20.128604773007002 ], [ -98.730870446170954, 20.129460598350505 ], [ -98.731156851087903, 20.129512286811845 ], [ -98.731345810544738, 20.129270791541618 ] ] } }
]
}
