{
  "type": "FeatureCollection",
  "name": "rutashidalgo-routes",
  "generatedAt": "2026-06-06",
  "description": "Rutas de la fuente rutashidalgo.",
  "features": [
    {
      "type": "Feature",
      "properties": {
        "routeId": "rutashidalgo-tbtroncal1-1",
        "externalId": "TBTroncal1-1",
        "name": "Tuzobus Troncal 1",
        "origin": "Tuzobus Troncal 1",
        "destination": "Tuzobus Troncal 1",
        "source": "rutashidalgo",
        "sourceLabel": "Rutas Hidalgo",
        "sourceUrl": "https://rutashidalgo.com/",
        "routeType": "tuzobus_troncal",
        "color": "#0e9e35",
        "fare": "Por confirmar",
        "frequency": "N/A",
        "schedule": "Por confirmar",
        "status": "preliminary",
        "updatedAt": "2026-06-06",
        "featureIndex": 0
      },
      "geometry": {
        "coordinates": [
          [
            -98.80351213429459,
            20.011050909131896
          ],
          [
            -98.80370945172503,
            20.01140185337674
          ],
          [
            -98.80414636889287,
            20.011514420233766
          ],
          [
            -98.80452338612594,
            20.01151110944471
          ],
          [
            -98.8110267852443,
            20.022619457572546
          ],
          [
            -98.80654424300232,
            20.026492082895857
          ],
          [
            -98.79661779439718,
            20.038089765449314
          ],
          [
            -98.79277625557545,
            20.044000088366815
          ],
          [
            -98.7717430173269,
            20.084908448382762
          ],
          [
            -98.77078192170063,
            20.086987212855547
          ],
          [
            -98.77076203704851,
            20.087978987296793
          ],
          [
            -98.77101059518984,
            20.09022930803897
          ],
          [
            -98.77039417100023,
            20.093244676260497
          ],
          [
            -98.76976780448399,
            20.094360518020565
          ],
          [
            -98.76347450976436,
            20.100276071514173
          ],
          [
            -98.75788020353035,
            20.10574677273739
          ],
          [
            -98.75743304067821,
            20.105913783360464
          ],
          [
            -98.75649552310713,
            20.10686574051151
          ],
          [
            -98.75627683848622,
            20.106899055171837
          ],
          [
            -98.75085262848901,
            20.106058649486968
          ],
          [
            -98.75082722150862,
            20.106180328430966
          ],
          [
            -98.75361509800526,
            20.106612725836186
          ],
          [
            -98.75450992650244,
            20.10680747830031
          ],
          [
            -98.75621727588936,
            20.107091394663314
          ],
          [
            -98.75628333403824,
            20.107322821634355
          ],
          [
            -98.75111397823605,
            20.112369799313626
          ],
          [
            -98.74657710146884,
            20.115900910514483
          ],
          [
            -98.745880485628,
            20.115581568451177
          ],
          [
            -98.74332145171957,
            20.115750126505915
          ],
          [
            -98.73942754224777,
            20.1183791808878
          ],
          [
            -98.73862524023397,
            20.118950360676536
          ],
          [
            -98.73801323374136,
            20.119495184701478
          ],
          [
            -98.73623581996833,
            20.12072896029585
          ],
          [
            -98.7360067546616,
            20.120748875611284
          ],
          [
            -98.73594312540968,
            20.120836502968373
          ],
          [
            -98.73585404445711,
            20.12099184225336
          ],
          [
            -98.73460560134933,
            20.121880944791428
          ],
          [
            -98.73414707047448,
            20.122157394723388
          ],
          [
            -98.7331460354532,
            20.1223625576568
          ],
          [
            -98.73301900055198,
            20.122450825347713
          ],
          [
            -98.73298089008179,
            20.122586805206865
          ],
          [
            -98.73310714371857,
            20.1245717351799
          ],
          [
            -98.73207317743874,
            20.12580773114584
          ],
          [
            -98.73142312356195,
            20.127747821791843
          ],
          [
            -98.73129149153785,
            20.12793034677044
          ],
          [
            -98.7308316002024,
            20.129439158763176
          ],
          [
            -98.73113874159284,
            20.129492126590392
          ],
          [
            -98.73138320106693,
            20.12924200058167
          ]
        ],
        "type": "LineString"
      }
    },
    {
      "type": "Feature",
      "properties": {
        "routeId": "rutashidalgo-tbtroncal1-2-5",
        "externalId": "TBTroncal1-2-5",
        "name": "Tuzobus Troncal 2-5",
        "origin": "Tuzobus Troncal 2-5",
        "destination": "Tuzobus Troncal 2-5",
        "source": "rutashidalgo",
        "sourceLabel": "Rutas Hidalgo",
        "sourceUrl": "https://rutashidalgo.com/",
        "routeType": "tuzobus_troncal",
        "color": "#0e9e35",
        "fare": "Por confirmar",
        "frequency": "N/A",
        "schedule": "Por confirmar",
        "status": "preliminary",
        "updatedAt": "2026-06-06",
        "featureIndex": 0
      },
      "geometry": {
        "coordinates": [
          [
            -98.80351213429459,
            20.011050909131896
          ],
          [
            -98.80370945172503,
            20.01140185337674
          ],
          [
            -98.80414636889287,
            20.011514420233766
          ],
          [
            -98.80452338612594,
            20.01151110944471
          ],
          [
            -98.8110267852443,
            20.022619457572546
          ],
          [
            -98.80654424300232,
            20.026492082895857
          ],
          [
            -98.79661779439718,
            20.038089765449314
          ],
          [
            -98.79277625557545,
            20.044000088366815
          ],
          [
            -98.7717430173269,
            20.084908448382762
          ],
          [
            -98.77078192170063,
            20.086987212855547
          ],
          [
            -98.77076203704851,
            20.087978987296793
          ],
          [
            -98.77101059518984,
            20.09022930803897
          ],
          [
            -98.77039417100023,
            20.093244676260497
          ],
          [
            -98.76976780448399,
            20.094360518020565
          ],
          [
            -98.76347450976436,
            20.100276071514173
          ],
          [
            -98.75111397823605,
            20.112369799313626
          ],
          [
            -98.74657710146884,
            20.115900910514483
          ],
          [
            -98.745880485628,
            20.115581568451177
          ],
          [
            -98.74332145171957,
            20.115750126505915
          ],
          [
            -98.73942754224777,
            20.1183791808878
          ],
          [
            -98.73862524023397,
            20.118950360676536
          ],
          [
            -98.73801323374136,
            20.119495184701478
          ],
          [
            -98.73623581996833,
            20.12072896029585
          ],
          [
            -98.7360067546616,
            20.120748875611284
          ],
          [
            -98.73594312540968,
            20.120836502968373
          ],
          [
            -98.73585404445711,
            20.12099184225336
          ],
          [
            -98.73460560134933,
            20.121880944791428
          ],
          [
            -98.73414707047448,
            20.122157394723388
          ],
          [
            -98.7331460354532,
            20.1223625576568
          ],
          [
            -98.73301900055198,
            20.122450825347713
          ],
          [
            -98.73298089008179,
            20.122586805206865
          ],
          [
            -98.73310714371857,
            20.1245717351799
          ],
          [
            -98.73207317743874,
            20.12580773114584
          ],
          [
            -98.73142312356195,
            20.127747821791843
          ],
          [
            -98.73129149153785,
            20.12793034677044
          ],
          [
            -98.7308316002024,
            20.129439158763176
          ],
          [
            -98.73113874159284,
            20.129492126590392
          ],
          [
            -98.73138320106693,
            20.12924200058167
          ]
        ],
        "type": "LineString"
      }
    },
    {
      "type": "Feature",
      "properties": {
        "routeId": "rutashidalgo-chavarria-centro",
        "externalId": "Chavarria-Centro",
        "name": "Chavarria - Centro",
        "origin": "Chavarria",
        "destination": "Centro",
        "source": "rutashidalgo",
        "sourceLabel": "Rutas Hidalgo",
        "sourceUrl": "https://rutashidalgo.com/",
        "routeType": "combi",
        "color": "#0e9e35",
        "fare": "Por confirmar",
        "frequency": "N/A",
        "schedule": "Por confirmar",
        "status": "preliminary",
        "updatedAt": "2026-06-06",
        "featureIndex": 0
      },
      "geometry": {
        "coordinates": [
          [
            -98.7227336,
            20.0432151
          ],
          [
            -98.7240997,
            20.0438663
          ],
          [
            -98.7241824,
            20.0439847
          ],
          [
            -98.7243395,
            20.0439925
          ],
          [
            -98.7244211,
            20.0439081
          ],
          [
            -98.7244243,
            20.0437497
          ],
          [
            -98.7251415,
            20.0425116
          ],
          [
            -98.7253451,
            20.0423834
          ],
          [
            -98.7255669,
            20.0423959
          ],
          [
            -98.7268902,
            20.0428668
          ],
          [
            -98.727062,
            20.0428596
          ],
          [
            -98.7280651,
            20.0426749
          ],
          [
            -98.7282968,
            20.0426603
          ],
          [
            -98.7285308,
            20.0427141
          ],
          [
            -98.7311642,
            20.043757
          ],
          [
            -98.7311986,
            20.0438591
          ],
          [
            -98.7312745,
            20.0439279
          ],
          [
            -98.731383,
            20.0439428
          ],
          [
            -98.7314606,
            20.0439212
          ],
          [
            -98.7315312,
            20.0438649
          ],
          [
            -98.7315612,
            20.0437398
          ],
          [
            -98.7315638,
            20.0436121
          ],
          [
            -98.7316526,
            20.0433123
          ],
          [
            -98.731944,
            20.0427207
          ],
          [
            -98.7322729,
            20.0422812
          ],
          [
            -98.7325833,
            20.0419539
          ],
          [
            -98.7330091,
            20.0416276
          ],
          [
            -98.7333117,
            20.0414718
          ],
          [
            -98.73364107414366,
            20.04134913367713
          ],
          [
            -98.7396925,
            20.0522156
          ],
          [
            -98.7401764,
            20.0531374
          ],
          [
            -98.7426894,
            20.0575792
          ],
          [
            -98.7430135,
            20.0582
          ],
          [
            -98.7432302,
            20.0587408
          ],
          [
            -98.7434259,
            20.0593356
          ],
          [
            -98.7436779,
            20.0602824
          ],
          [
            -98.7438285,
            20.061244
          ],
          [
            -98.7457422,
            20.0887107
          ],
          [
            -98.745661,
            20.0889166
          ],
          [
            -98.7456005,
            20.0889999
          ],
          [
            -98.7455193,
            20.0890709
          ],
          [
            -98.745404,
            20.089117
          ],
          [
            -98.7452907,
            20.089133
          ],
          [
            -98.745132,
            20.0891046
          ],
          [
            -98.7450016,
            20.0890408
          ],
          [
            -98.7447976,
            20.0887746
          ],
          [
            -98.7446691,
            20.0885404
          ],
          [
            -98.7446671,
            20.0883606
          ],
          [
            -98.74473316121691,
            20.088190527810056
          ],
          [
            -98.7448352,
            20.0880909
          ],
          [
            -98.74497263782223,
            20.088040589031635
          ],
          [
            -98.7451073,
            20.0880199
          ],
          [
            -98.74523388502735,
            20.088020142822373
          ],
          [
            -98.7509537,
            20.090459
          ],
          [
            -98.7512211,
            20.0906318
          ],
          [
            -98.7537107,
            20.0916146
          ],
          [
            -98.754004,
            20.0917657
          ],
          [
            -98.7579044,
            20.0954302
          ],
          [
            -98.7590929,
            20.0965341
          ],
          [
            -98.7591625,
            20.096794
          ],
          [
            -98.7591711,
            20.0969587
          ],
          [
            -98.7590763,
            20.0971773
          ],
          [
            -98.75895030430894,
            20.09730244696061
          ],
          [
            -98.75789805861903,
            20.098140689634903
          ],
          [
            -98.756111,
            20.1004331
          ],
          [
            -98.754501,
            20.1031957
          ],
          [
            -98.7540856,
            20.1049236
          ],
          [
            -98.75365707051076,
            20.106508853735605
          ],
          [
            -98.7468970785469,
            20.10544173138838
          ],
          [
            -98.74724990675792,
            20.110890759749353
          ],
          [
            -98.7472999,
            20.1116912
          ],
          [
            -98.7472624,
            20.1120061
          ],
          [
            -98.7472079,
            20.1124439
          ],
          [
            -98.7471317,
            20.1128997
          ],
          [
            -98.7469718,
            20.1133404
          ],
          [
            -98.7469054,
            20.1133832
          ],
          [
            -98.746833,
            20.113401
          ],
          [
            -98.745058,
            20.1128965
          ],
          [
            -98.7448507,
            20.1126975
          ],
          [
            -98.7471451,
            20.1112926
          ],
          [
            -98.747177,
            20.1112547
          ],
          [
            -98.7471813,
            20.1112128
          ],
          [
            -98.7471728,
            20.1111091
          ],
          [
            -98.7471579,
            20.1109815
          ],
          [
            -98.7471239,
            20.1109456
          ],
          [
            -98.747064,
            20.1109512
          ],
          [
            -98.7452003,
            20.112097
          ],
          [
            -98.7450663,
            20.1122259
          ],
          [
            -98.7439916,
            20.1129044
          ],
          [
            -98.7430585,
            20.1133413
          ],
          [
            -98.7421124,
            20.1137418
          ],
          [
            -98.7396347,
            20.1148353
          ],
          [
            -98.7374185,
            20.1158033
          ],
          [
            -98.7363913,
            20.1164482
          ],
          [
            -98.7355246077046,
            20.11720589306097
          ],
          [
            -98.7349655,
            20.1178945
          ],
          [
            -98.7344584,
            20.1188267
          ],
          [
            -98.7341456,
            20.1195095
          ],
          [
            -98.7339506,
            20.1202199
          ],
          [
            -98.73374714970743,
            20.120987170325677
          ],
          [
            -98.73443350152391,
            20.121633814869995
          ],
          [
            -98.73487058113982,
            20.122254820258135
          ]
        ],
        "type": "LineString"
      }
    },
    {
      "type": "Feature",
      "properties": {
        "routeId": "rutashidalgo-calera-centro",
        "externalId": "Calera-Centro",
        "name": "La Calera - Centro",
        "origin": "La Calera",
        "destination": "Centro",
        "source": "rutashidalgo",
        "sourceLabel": "Rutas Hidalgo",
        "sourceUrl": "https://rutashidalgo.com/",
        "routeType": "combi",
        "color": "#653b07",
        "fare": "Por confirmar",
        "frequency": "N/A",
        "schedule": "Por confirmar",
        "status": "preliminary",
        "updatedAt": "2026-06-06",
        "featureIndex": 0
      },
      "geometry": {
        "coordinates": [
          [
            -98.72478202039262,
            20.03224666325015
          ],
          [
            -98.72861271171801,
            20.03235856816289
          ],
          [
            -98.72972462554537,
            20.034255102603055
          ],
          [
            -98.73157970463856,
            20.037491862086625
          ],
          [
            -98.73349714954314,
            20.04099112364183
          ],
          [
            -98.73364107414366,
            20.04134913367713
          ],
          [
            -98.7396925,
            20.0522156
          ],
          [
            -98.7401764,
            20.0531374
          ],
          [
            -98.7426894,
            20.0575792
          ],
          [
            -98.7430135,
            20.0582
          ],
          [
            -98.7432302,
            20.0587408
          ],
          [
            -98.7434259,
            20.0593356
          ],
          [
            -98.7436779,
            20.0602824
          ],
          [
            -98.7438285,
            20.061244
          ],
          [
            -98.7457422,
            20.0887107
          ],
          [
            -98.745661,
            20.0889166
          ],
          [
            -98.7456005,
            20.0889999
          ],
          [
            -98.7455193,
            20.0890709
          ],
          [
            -98.745404,
            20.089117
          ],
          [
            -98.7452907,
            20.089133
          ],
          [
            -98.745132,
            20.0891046
          ],
          [
            -98.7450016,
            20.0890408
          ],
          [
            -98.7447976,
            20.0887746
          ],
          [
            -98.7446691,
            20.0885404
          ],
          [
            -98.7446671,
            20.0883606
          ],
          [
            -98.74473316121691,
            20.088190527810056
          ],
          [
            -98.7448352,
            20.0880909
          ],
          [
            -98.74497263782223,
            20.088040589031635
          ],
          [
            -98.7451073,
            20.0880199
          ],
          [
            -98.74523388502735,
            20.088020142822373
          ],
          [
            -98.7509537,
            20.090459
          ],
          [
            -98.7512211,
            20.0906318
          ],
          [
            -98.7537107,
            20.0916146
          ],
          [
            -98.754004,
            20.0917657
          ],
          [
            -98.7579044,
            20.0954302
          ],
          [
            -98.7590929,
            20.0965341
          ],
          [
            -98.7591625,
            20.096794
          ],
          [
            -98.7591711,
            20.0969587
          ],
          [
            -98.7590763,
            20.0971773
          ],
          [
            -98.75895030430894,
            20.09730244696061
          ],
          [
            -98.75789805861903,
            20.098140689634903
          ],
          [
            -98.756111,
            20.1004331
          ],
          [
            -98.754501,
            20.1031957
          ],
          [
            -98.7540856,
            20.1049236
          ],
          [
            -98.75365707051076,
            20.106508853735605
          ],
          [
            -98.7468970785469,
            20.10544173138838
          ],
          [
            -98.74724990675792,
            20.110890759749353
          ],
          [
            -98.7472999,
            20.1116912
          ],
          [
            -98.7472624,
            20.1120061
          ],
          [
            -98.7472079,
            20.1124439
          ],
          [
            -98.7471317,
            20.1128997
          ],
          [
            -98.7469718,
            20.1133404
          ],
          [
            -98.7469054,
            20.1133832
          ],
          [
            -98.746833,
            20.113401
          ],
          [
            -98.745058,
            20.1128965
          ],
          [
            -98.7448507,
            20.1126975
          ],
          [
            -98.7471451,
            20.1112926
          ],
          [
            -98.747177,
            20.1112547
          ],
          [
            -98.7471813,
            20.1112128
          ],
          [
            -98.7471728,
            20.1111091
          ],
          [
            -98.7471579,
            20.1109815
          ],
          [
            -98.7471239,
            20.1109456
          ],
          [
            -98.747064,
            20.1109512
          ],
          [
            -98.7452003,
            20.112097
          ],
          [
            -98.7450663,
            20.1122259
          ],
          [
            -98.7439916,
            20.1129044
          ],
          [
            -98.7430585,
            20.1133413
          ],
          [
            -98.7421124,
            20.1137418
          ],
          [
            -98.7396347,
            20.1148353
          ],
          [
            -98.7374185,
            20.1158033
          ],
          [
            -98.7363913,
            20.1164482
          ],
          [
            -98.7355246077046,
            20.11720589306097
          ],
          [
            -98.7349655,
            20.1178945
          ],
          [
            -98.7344584,
            20.1188267
          ],
          [
            -98.7341456,
            20.1195095
          ],
          [
            -98.7339506,
            20.1202199
          ],
          [
            -98.73374714970743,
            20.120987170325677
          ],
          [
            -98.73443350152391,
            20.121633814869995
          ],
          [
            -98.73487058113982,
            20.122254820258135
          ]
        ],
        "type": "LineString"
      }
    },
    {
      "type": "Feature",
      "properties": {
        "routeId": "rutashidalgo-delaunidad",
        "externalId": "DeLaUnidad",
        "name": "Ruta de la Unidad",
        "origin": "Ruta de la Unidad",
        "destination": "Ruta de la Unidad",
        "source": "rutashidalgo",
        "sourceLabel": "Rutas Hidalgo",
        "sourceUrl": "https://rutashidalgo.com/",
        "routeType": "combi",
        "color": "#df210b",
        "fare": "Por confirmar",
        "frequency": "N/A",
        "schedule": "Por confirmar",
        "status": "preliminary",
        "updatedAt": "2026-06-06",
        "featureIndex": 0
      },
      "geometry": {
        "coordinates": [
          [
            -98.67009200368601,
            20.06724273555463
          ],
          [
            -98.67011806748948,
            20.067020518842043
          ],
          [
            -98.6799838164774,
            20.066375388752988
          ],
          [
            -98.70476248444788,
            20.073252239996805
          ],
          [
            -98.70584422025573,
            20.074014983033862
          ],
          [
            -98.70996420793858,
            20.078250486708512
          ],
          [
            -98.7108145878124,
            20.079710208524915
          ],
          [
            -98.7122573080504,
            20.07622497334495
          ],
          [
            -98.71626854675283,
            20.069091128980176
          ],
          [
            -98.71652615937771,
            20.068923603618202
          ],
          [
            -98.7164415732941,
            20.068763012989507
          ],
          [
            -98.71631739372457,
            20.068784988559003
          ],
          [
            -98.71539599197929,
            20.056973959769252
          ],
          [
            -98.71699577377214,
            20.047008051102083
          ],
          [
            -98.71768580747424,
            20.042155350019172
          ],
          [
            -98.71734079062249,
            20.039110283631686
          ],
          [
            -98.71706477714149,
            20.038802360623663
          ],
          [
            -98.7149946760347,
            20.03398895935601
          ],
          [
            -98.71582323558364,
            20.03383392079877
          ],
          [
            -98.71622062208334,
            20.03181212356651
          ],
          [
            -98.71708875874394,
            20.031955717978065
          ],
          [
            -98.72864109226107,
            20.032352756038208
          ],
          [
            -98.7397566431183,
            20.05230214755528
          ],
          [
            -98.74150541343111,
            20.055482805467236
          ],
          [
            -98.7418588656367,
            20.05527373868611
          ],
          [
            -98.74297167873942,
            20.054040775082456
          ],
          [
            -98.74332549623898,
            20.05275419403894
          ],
          [
            -98.74345104438399,
            20.05270058626624
          ],
          [
            -98.75133604647311,
            20.054899829452964
          ],
          [
            -98.75271476871593,
            20.05533414492068
          ],
          [
            -98.75291464868361,
            20.055373272380862
          ],
          [
            -98.75933891792,
            20.05729958047759
          ],
          [
            -98.76006729840259,
            20.05824083754277
          ],
          [
            -98.77316765222587,
            20.061064174620356
          ],
          [
            -98.77423373101804,
            20.061245784345303
          ],
          [
            -98.77490441253426,
            20.06127517342152
          ],
          [
            -98.77696326976219,
            20.059057293443885
          ],
          [
            -98.77713757835605,
            20.058780537976276
          ],
          [
            -98.78044825807079,
            20.055364529435252
          ],
          [
            -98.78075238057305,
            20.05518732058539
          ],
          [
            -98.78113033064982,
            20.05514101202779
          ],
          [
            -98.78145194034305,
            20.055290963498635
          ],
          [
            -98.78535187313153,
            20.057417068972185
          ],
          [
            -98.78881204001658,
            20.06485451338115
          ],
          [
            -98.79259502017375,
            20.073038223512313
          ],
          [
            -98.79239904950504,
            20.073306960518224
          ],
          [
            -98.7876050635691,
            20.077775226014452
          ]
        ],
        "type": "LineString"
      }
    },
    {
      "type": "Feature",
      "properties": {
        "routeId": "rutashidalgo-pachuca-margaritas",
        "externalId": "Pachuca-Margaritas",
        "name": "Pachuca - Margaritas",
        "origin": "Pachuca",
        "destination": "Margaritas",
        "source": "rutashidalgo",
        "sourceLabel": "Rutas Hidalgo",
        "sourceUrl": "https://rutashidalgo.com/",
        "routeType": "combi",
        "color": "#ef792d",
        "fare": "Por confirmar",
        "frequency": "N/A",
        "schedule": "Por confirmar",
        "status": "preliminary",
        "updatedAt": "2026-06-06",
        "featureIndex": 0
      },
      "geometry": {
        "coordinates": [
          [
            -98.75064571834442,
            20.106017539564334
          ],
          [
            -98.74734515897435,
            20.105508303863274
          ],
          [
            -98.74699033210446,
            20.10514995182065
          ],
          [
            -98.7438882301905,
            20.06037129880626
          ],
          [
            -98.74318729402596,
            20.058099553163885
          ],
          [
            -98.70977057058613,
            19.998124020006287
          ],
          [
            -98.70981673876418,
            19.997953953013948
          ],
          [
            -98.70991092184754,
            19.997863713311872
          ],
          [
            -98.7111420655646,
            19.99715881113059
          ],
          [
            -98.71143393218878,
            19.99689409362506
          ],
          [
            -98.71160198435689,
            19.99663725568223
          ],
          [
            -98.71172758204402,
            19.99631008623453
          ],
          [
            -98.71174420258805,
            19.996072336731615
          ],
          [
            -98.71174050913342,
            19.995881442709575
          ],
          [
            -98.71182215093808,
            19.995544146516977
          ],
          [
            -98.71198835637948,
            19.99524565658082
          ],
          [
            -98.71222361674302,
            19.995019369709084
          ],
          [
            -98.71245261090588,
            19.99486491807764
          ],
          [
            -98.71291613941352,
            19.99467055176339
          ],
          [
            -98.71312334539772,
            19.994623616738266
          ],
          [
            -98.7169845693192,
            19.994203917464304
          ],
          [
            -98.71731069569695,
            19.99413271309558
          ],
          [
            -98.71804569309089,
            19.993933139610064
          ],
          [
            -98.71847544299928,
            19.993888270338587
          ],
          [
            -98.71891127059963,
            19.99391083083883
          ],
          [
            -98.71939384207705,
            19.994033747096992
          ],
          [
            -98.71977057440995,
            19.994240262133218
          ],
          [
            -98.72027913786035,
            19.994611801652553
          ],
          [
            -98.72191475549337,
            19.99600886760446
          ],
          [
            -98.72200893857617,
            19.996217115446896
          ],
          [
            -98.72203831972023,
            19.996529330236
          ],
          [
            -98.722171284073,
            19.996801786874926
          ],
          [
            -98.7223684015291,
            19.9970036238617
          ],
          [
            -98.72351337354225,
            19.997992791491683
          ],
          [
            -98.7238734847102,
            19.998305159083046
          ],
          [
            -98.72420774231911,
            19.998539434470004
          ]
        ],
        "type": "LineString"
      }
    },
    {
      "type": "Feature",
      "properties": {
        "routeId": "rutashidalgo-pachuca-upp",
        "externalId": "Pachuca-UPP",
        "name": "Pachuca - UPP",
        "origin": "Pachuca",
        "destination": "UPP",
        "source": "rutashidalgo",
        "sourceLabel": "Rutas Hidalgo",
        "sourceUrl": "https://rutashidalgo.com/",
        "routeType": "combi",
        "color": "#8611e3",
        "fare": "Por confirmar",
        "frequency": "Cada que se llena la combi",
        "schedule": "Por confirmar",
        "status": "preliminary",
        "updatedAt": "2026-06-06",
        "featureIndex": 0
      },
      "geometry": {
        "coordinates": [
          [
            -98.74887998884371,
            20.10624091774112
          ],
          [
            -98.74873451981905,
            20.106242543975497
          ],
          [
            -98.74871200675625,
            20.105850621031323
          ],
          [
            -98.75061224411124,
            20.106149563363985
          ],
          [
            -98.75064571834442,
            20.106017539564334
          ],
          [
            -98.74734515897435,
            20.105508303863274
          ],
          [
            -98.74699033210446,
            20.10514995182065
          ],
          [
            -98.7438882301905,
            20.06037129880626
          ],
          [
            -98.74318729402596,
            20.058099553163885
          ],
          [
            -98.70672342136007,
            19.99265438765086
          ],
          [
            -98.6943257271441,
            19.959070609148228
          ],
          [
            -98.69454239084122,
            19.958573925543888
          ],
          [
            -98.69652968130296,
            19.957976522376782
          ],
          [
            -98.6964312119557,
            19.9576820270255
          ],
          [
            -98.69512425516547,
            19.958279431307673
          ],
          [
            -98.69234025816722,
            19.958430885555046
          ],
          [
            -98.69160621394289,
            19.958279431307673
          ],
          [
            -98.69155250338972,
            19.95858233965707
          ],
          [
            -98.69327124108642,
            19.958557097316955
          ],
          [
            -98.69382625013428,
            19.958759035925468
          ],
          [
            -98.69422012752301,
            19.959373264271363
          ],
          [
            -98.69492731647092,
            19.961300074662134
          ],
          [
            -98.6876054908715,
            19.972284064911236
          ],
          [
            -98.68571434985465,
            19.977430213090756
          ],
          [
            -98.68593553961917,
            19.97755221563048
          ],
          [
            -98.68572467235866,
            19.978251955976404
          ]
        ],
        "type": "LineString"
      }
    },
    {
      "type": "Feature",
      "properties": {
        "routeId": "rutashidalgo-pachuca-zempoala",
        "externalId": "Pachuca-Zempoala",
        "name": "Pachuca - Zempoala",
        "origin": "Pachuca",
        "destination": "Zempoala",
        "source": "rutashidalgo",
        "sourceLabel": "Rutas Hidalgo",
        "sourceUrl": "https://rutashidalgo.com/",
        "routeType": "combi",
        "color": "#0c7b2a",
        "fare": "Por confirmar",
        "frequency": "N/A",
        "schedule": "Por confirmar",
        "status": "preliminary",
        "updatedAt": "2026-06-06",
        "featureIndex": 0
      },
      "geometry": {
        "coordinates": [
          [
            -98.74887998884371,
            20.10624091774112
          ],
          [
            -98.74873451981905,
            20.106242543975497
          ],
          [
            -98.74871200675625,
            20.105850621031323
          ],
          [
            -98.75061224411124,
            20.106149563363985
          ],
          [
            -98.75064571834442,
            20.106017539564334
          ],
          [
            -98.74734515897435,
            20.105508303863274
          ],
          [
            -98.74699033210446,
            20.10514995182065
          ],
          [
            -98.7438882301905,
            20.06037129880626
          ],
          [
            -98.74318729402596,
            20.058099553163885
          ],
          [
            -98.70672342136007,
            19.99265438765086
          ],
          [
            -98.69432590997852,
            19.959071264989333
          ],
          [
            -98.68081814886412,
            19.92297475370944
          ],
          [
            -98.68056529752099,
            19.92224385061475
          ],
          [
            -98.67981415705455,
            19.920535708656942
          ],
          [
            -98.67890829372747,
            19.91786162361545
          ]
        ],
        "type": "LineString"
      }
    },
    {
      "type": "Feature",
      "properties": {
        "routeId": "rutashidalgo-providencia-tilcuautla-colosio",
        "externalId": "Providencia-Tilcuautla_Colosio",
        "name": "Providencia - Tilcuautla por Colosio",
        "origin": "Providencia",
        "destination": "Tilcuautla por Colosio",
        "source": "rutashidalgo",
        "sourceLabel": "Rutas Hidalgo",
        "sourceUrl": "https://rutashidalgo.com/",
        "routeType": "combi",
        "color": "#1b3ddc",
        "fare": "Por confirmar",
        "frequency": "N/A",
        "schedule": "Por confirmar",
        "status": "preliminary",
        "updatedAt": "2026-06-06",
        "featureIndex": 0
      },
      "geometry": {
        "coordinates": [
          [
            -98.72273779679267,
            20.043206958291535
          ],
          [
            -98.72378592211444,
            20.043753803796292
          ],
          [
            -98.72410736966327,
            20.04387123958047
          ],
          [
            -98.7241683851698,
            20.043976092885387
          ],
          [
            -98.72426809343744,
            20.044009645928043
          ],
          [
            -98.72436184897258,
            20.043974694841637
          ],
          [
            -98.72441691174706,
            20.043895006336356
          ],
          [
            -98.72442732902884,
            20.043799939292967
          ],
          [
            -98.72440947083177,
            20.04373283311085
          ],
          [
            -98.72465804709425,
            20.043314196341512
          ],
          [
            -98.72512248093163,
            20.04254371042802
          ],
          [
            -98.72524451194563,
            20.042424875592772
          ],
          [
            -98.72538291297346,
            20.042375943576204
          ],
          [
            -98.72555897195475,
            20.042387128195898
          ],
          [
            -98.72682690395798,
            20.04285687491371
          ],
          [
            -98.72697125771786,
            20.042868059342027
          ],
          [
            -98.72821835484417,
            20.042658351178844
          ],
          [
            -98.7283984259821,
            20.04267512900546
          ],
          [
            -98.72938508775384,
            20.043035825270564
          ],
          [
            -98.73074059034319,
            20.043569448916386
          ],
          [
            -98.73115430524389,
            20.043753991040973
          ],
          [
            -98.73122573836942,
            20.04389938885045
          ],
          [
            -98.73137455667901,
            20.043953912567318
          ],
          [
            -98.73149063496051,
            20.043909175160238
          ],
          [
            -98.73155760319953,
            20.043802923765398
          ],
          [
            -98.7315516504675,
            20.043642148491514
          ],
          [
            -98.73165666313264,
            20.04332892459348
          ],
          [
            -98.73195979298315,
            20.042687022792094
          ],
          [
            -98.73246666633332,
            20.042059123289178
          ],
          [
            -98.73280955091883,
            20.04178602136234
          ],
          [
            -98.73316734352976,
            20.04153392685521
          ],
          [
            -98.7336468854548,
            20.04136119610837
          ],
          [
            -98.73395632085055,
            20.04193672630268
          ],
          [
            -98.73776287753755,
            20.04878578002696
          ],
          [
            -98.73973958952341,
            20.052275260597625
          ],
          [
            -98.73985493227768,
            20.052591446566524
          ],
          [
            -98.74150172378975,
            20.055491651720118
          ],
          [
            -98.7417280286395,
            20.055370610885845
          ],
          [
            -98.74284699666984,
            20.054189882198045
          ],
          [
            -98.74286084136892,
            20.054173923636355
          ],
          [
            -98.74298577211698,
            20.053986153846722
          ],
          [
            -98.74331683859846,
            20.052759776880663
          ],
          [
            -98.74346675547692,
            20.052706966187657
          ],
          [
            -98.74675190998303,
            20.053596633265812
          ],
          [
            -98.74924261128899,
            20.05435025582358
          ],
          [
            -98.75131021516383,
            20.05487248878444
          ],
          [
            -98.75156007665944,
            20.0549957120391
          ],
          [
            -98.75272817915071,
            20.055336042429303
          ],
          [
            -98.75447721397303,
            20.05583480128317
          ],
          [
            -98.75935682041232,
            20.057303536551913
          ],
          [
            -98.76009391182365,
            20.05824823106059
          ],
          [
            -98.77188496599929,
            20.060804746993497
          ],
          [
            -98.77209110173322,
            20.060828217210286
          ],
          [
            -98.7732711981174,
            20.061080625931467
          ],
          [
            -98.77429367492014,
            20.061249537519913
          ],
          [
            -98.77489985263283,
            20.061288834651933
          ],
          [
            -98.77699574484193,
            20.059011129040726
          ],
          [
            -98.77714753099247,
            20.05877011250314
          ],
          [
            -98.78046798082224,
            20.055316610713177
          ],
          [
            -98.78071335981406,
            20.055192740289584
          ],
          [
            -98.78097942452118,
            20.055146733034803
          ],
          [
            -98.78117533286311,
            20.055175332140493
          ],
          [
            -98.78138977361145,
            20.05524745207893
          ],
          [
            -98.78534065467198,
            20.057420970457898
          ],
          [
            -98.78552733274617,
            20.057759993892276
          ],
          [
            -98.78894326683817,
            20.065133847477213
          ],
          [
            -98.79263543758852,
            20.073147482671743
          ],
          [
            -98.79505870043698,
            20.07805710613829
          ],
          [
            -98.80223120875642,
            20.09341671531989
          ],
          [
            -98.80392855121929,
            20.09696415676838
          ],
          [
            -98.80467444154273,
            20.097907304648814
          ],
          [
            -98.8236049780532,
            20.115137984966836
          ],
          [
            -98.82506233278178,
            20.116524068791833
          ],
          [
            -98.8255434752409,
            20.117195419459662
          ],
          [
            -98.82575510233234,
            20.1176034878021
          ],
          [
            -98.82581654151666,
            20.118010095613045
          ],
          [
            -98.82571295751065,
            20.118430574586938
          ],
          [
            -98.82554633352756,
            20.118700389193975
          ],
          [
            -98.82534394631533,
            20.118866485273273
          ],
          [
            -98.82485471108691,
            20.11914630439405
          ],
          [
            -98.82267152425878,
            20.120096005813778
          ],
          [
            -98.82219185063039,
            20.120265093104152
          ],
          [
            -98.81151515674104,
            20.12485574628154
          ],
          [
            -98.81117254883326,
            20.124802195329778
          ],
          [
            -98.81104187362544,
            20.124697454051955
          ],
          [
            -98.8109813168218,
            20.124546327226213
          ],
          [
            -98.81100681442335,
            20.124377244564883
          ],
          [
            -98.81110083682884,
            20.12425903622352
          ],
          [
            -98.81124266723742,
            20.124200680174994
          ],
          [
            -98.81139087204603,
            20.124188709700405
          ],
          [
            -98.8115470448554,
            20.12426053253236
          ],
          [
            -98.81163788006036,
            20.124390711331685
          ],
          [
            -98.81168409446322,
            20.124576253341104
          ],
          [
            -98.81146965370847,
            20.12723346762408
          ],
          [
            -98.81152061730974,
            20.127406121436948
          ],
          [
            -98.81163183477179,
            20.12758707219038
          ],
          [
            -98.81262229920273,
            20.128888991226844
          ],
          [
            -98.81269147616287,
            20.129110918942857
          ],
          [
            -98.81271010088916,
            20.12931576791665
          ],
          [
            -98.81265156603567,
            20.12955559076397
          ],
          [
            -98.81254247835412,
            20.129760439155007
          ],
          [
            -98.81137828393551,
            20.13127448521989
          ],
          [
            -98.80992954690524,
            20.133179869486725
          ],
          [
            -98.80955754487694,
            20.13333069092755
          ],
          [
            -98.80893714147439,
            20.13417248454428
          ],
          [
            -98.80869196047882,
            20.134589275787917
          ],
          [
            -98.80855668701409,
            20.13508142498908
          ],
          [
            -98.8085144140564,
            20.13583552156402
          ],
          [
            -98.80843265604545,
            20.13962140105886
          ],
          [
            -98.80796765351042,
            20.1401611601363
          ],
          [
            -98.80726553889882,
            20.142571680132775
          ],
          [
            -98.80612416036614,
            20.145692229089562
          ]
        ],
        "type": "LineString"
      }
    },
    {
      "type": "Feature",
      "properties": {
        "routeId": "rutashidalgo-providencia-tilcuautla-conalep",
        "externalId": "Providencia-Tilcuautla_Conalep",
        "name": "Providencia - Tilcuautla por Conalep",
        "origin": "Providencia",
        "destination": "Tilcuautla por Conalep",
        "source": "rutashidalgo",
        "sourceLabel": "Rutas Hidalgo",
        "sourceUrl": "https://rutashidalgo.com/",
        "routeType": "combi",
        "color": "#1b3ddc",
        "fare": "Por confirmar",
        "frequency": "N/A",
        "schedule": "Por confirmar",
        "status": "preliminary",
        "updatedAt": "2026-06-06",
        "featureIndex": 0
      },
      "geometry": {
        "coordinates": [
          [
            -98.71812678711508,
            20.061164491827043
          ],
          [
            -98.71742461409691,
            20.061001943672878
          ],
          [
            -98.7171949935364,
            20.06196785234883
          ],
          [
            -98.71784392120708,
            20.06212414769216
          ],
          [
            -98.71722622462424,
            20.064607314332193
          ],
          [
            -98.71748886180667,
            20.068159790080216
          ],
          [
            -98.72356962651256,
            20.06780784593252
          ],
          [
            -98.72729148133762,
            20.06762068052332
          ],
          [
            -98.72801694919497,
            20.067711328575072
          ],
          [
            -98.72813342753635,
            20.06746126620746
          ],
          [
            -98.73098055633427,
            20.067205598180706
          ],
          [
            -98.73276951267306,
            20.06674891842394
          ],
          [
            -98.73568735864575,
            20.066140529830662
          ],
          [
            -98.7358237998479,
            20.06622492709006
          ],
          [
            -98.73761031290543,
            20.065846481824764
          ],
          [
            -98.73778668811848,
            20.065883991793797
          ],
          [
            -98.73886844563143,
            20.066522150997244
          ],
          [
            -98.74273779372264,
            20.06883336332804
          ],
          [
            -98.74295286412551,
            20.068794264311947
          ],
          [
            -98.74350788451878,
            20.067960149665794
          ],
          [
            -98.74406984266712,
            20.068318558846002
          ],
          [
            -98.74434735286401,
            20.06867045070021
          ],
          [
            -98.74484295654234,
            20.07601561027522
          ],
          [
            -98.74492655289146,
            20.07659524845073
          ],
          [
            -98.745064240996,
            20.076604485695356
          ],
          [
            -98.74400865221222,
            20.06147507619025
          ],
          [
            -98.74382750262791,
            20.060295698342173
          ],
          [
            -98.7433002521316,
            20.05842409950303
          ],
          [
            -98.74328151251953,
            20.058189393586005
          ],
          [
            -98.74190102707058,
            20.055543058616635
          ],
          [
            -98.74188853399603,
            20.055273141827783
          ],
          [
            -98.74286084136892,
            20.054173923636355
          ],
          [
            -98.74298577211698,
            20.053986153846722
          ],
          [
            -98.74331683859846,
            20.052759776880663
          ],
          [
            -98.74346675547692,
            20.052706966187657
          ],
          [
            -98.74675190998303,
            20.053596633265812
          ],
          [
            -98.74924261128899,
            20.05435025582358
          ],
          [
            -98.75131021516383,
            20.05487248878444
          ],
          [
            -98.75156007665944,
            20.0549957120391
          ],
          [
            -98.75272817915071,
            20.055336042429303
          ],
          [
            -98.75447721397303,
            20.05583480128317
          ],
          [
            -98.75935682041232,
            20.057303536551913
          ],
          [
            -98.76009391182365,
            20.05824823106059
          ],
          [
            -98.77188496599929,
            20.060804746993497
          ],
          [
            -98.77209110173322,
            20.060828217210286
          ],
          [
            -98.77327169729953,
            20.061080521812755
          ],
          [
            -98.77331691533831,
            20.061148789289263
          ],
          [
            -98.77404351328887,
            20.061310741472283
          ],
          [
            -98.77410508938617,
            20.06143798949776
          ],
          [
            -98.77400246255758,
            20.061788885035142
          ],
          [
            -98.77274633228164,
            20.063628138078954
          ],
          [
            -98.77259387152652,
            20.064024524669733
          ],
          [
            -98.77134180241096,
            20.065753953434765
          ],
          [
            -98.76994330822687,
            20.067944326031764
          ],
          [
            -98.7653186139013,
            20.07573819342744
          ],
          [
            -98.76420859485115,
            20.077758642661664
          ],
          [
            -98.76392113873852,
            20.078775059923046
          ],
          [
            -98.7627290413307,
            20.08009321624239
          ],
          [
            -98.76171575547053,
            20.081329620902736
          ],
          [
            -98.76127611671001,
            20.08217132273947
          ],
          [
            -98.7598641999218,
            20.085188707266525
          ],
          [
            -98.7624935739441,
            20.086054208133945
          ],
          [
            -98.76340666983103,
            20.08653856966805
          ],
          [
            -98.76341512442278,
            20.08683236199971
          ],
          [
            -98.76269648414139,
            20.08767403427933
          ],
          [
            -98.76202324498169,
            20.088507497145542
          ],
          [
            -98.76088187512295,
            20.090278160872202
          ],
          [
            -98.76080483337567,
            20.09058810514088
          ],
          [
            -98.76089783388274,
            20.091024811984312
          ],
          [
            -98.76143892774171,
            20.092350805303795
          ],
          [
            -98.76155729202333,
            20.092747807108168
          ],
          [
            -98.7614809482809,
            20.093202531416424
          ],
          [
            -98.76081303554894,
            20.094139448964995
          ],
          [
            -98.76059229952317,
            20.094539035707797
          ],
          [
            -98.76052466279064,
            20.09486457271312
          ],
          [
            -98.76053311738237,
            20.09584117966962
          ],
          [
            -98.76046548116355,
            20.096246112713573
          ],
          [
            -98.76001738781164,
            20.09664310464389
          ],
          [
            -98.75951856691034,
            20.096944817837596
          ],
          [
            -98.76273613346982,
            20.10001408032663
          ],
          [
            -98.76283758856863,
            20.100387243789157
          ],
          [
            -98.7630489533573,
            20.100760406362937
          ],
          [
            -98.76341250079355,
            20.10097477594951
          ],
          [
            -98.76386904873716,
            20.10110974924295
          ],
          [
            -98.76529787709708,
            20.102419955593717
          ],
          [
            -98.76556842402658,
            20.10251522999218
          ],
          [
            -98.77234000379023,
            20.10904964393579
          ],
          [
            -98.772475277255,
            20.109311637294013
          ],
          [
            -98.77909880937474,
            20.115513030954745
          ],
          [
            -98.78189404507735,
            20.117616813583055
          ],
          [
            -98.78815889741286,
            20.122594339777052
          ],
          [
            -98.78848692747458,
            20.12273480294361
          ],
          [
            -98.78942538713603,
            20.12284594197135
          ],
          [
            -98.79174194521946,
            20.122750679952162
          ],
          [
            -98.79494623541562,
            20.12301265036487
          ],
          [
            -98.79517450938712,
            20.123123789195134
          ],
          [
            -98.79748261287915,
            20.123417512866638
          ],
          [
            -98.79935109089323,
            20.123449269334827
          ],
          [
            -98.80006127658322,
            20.123481023205827
          ],
          [
            -98.80096591787877,
            20.12365566938007
          ],
          [
            -98.80159155765307,
            20.123885884494314
          ],
          [
            -98.80215801528658,
            20.124131976137903
          ],
          [
            -98.80498184886305,
            20.12607688034089
          ],
          [
            -98.80532002857677,
            20.126434108217552
          ],
          [
            -98.80659667190025,
            20.12733113546463
          ],
          [
            -98.80714622035063,
            20.127823307519094
          ],
          [
            -98.81132754308884,
            20.13091683258942
          ],
          [
            -98.81137827063823,
            20.131274046202222
          ],
          [
            -98.80992954690524,
            20.133179869486725
          ],
          [
            -98.80955754487694,
            20.13333069092755
          ],
          [
            -98.80893714147439,
            20.13417248454428
          ],
          [
            -98.80869196047882,
            20.134589275787917
          ],
          [
            -98.80855668701409,
            20.13508142498908
          ],
          [
            -98.8085144140564,
            20.13583552156402
          ],
          [
            -98.80843265604545,
            20.13962140105886
          ],
          [
            -98.80796765351042,
            20.1401611601363
          ],
          [
            -98.80726553889882,
            20.142571680132775
          ],
          [
            -98.80612416036614,
            20.145692229089562
          ]
        ],
        "type": "LineString"
      }
    },
    {
      "type": "Feature",
      "properties": {
        "routeId": "rutashidalgo-providencia-tilcuautla-sanfernando",
        "externalId": "Providencia-Tilcuautla_SanFernando",
        "name": "Providencia - Tilcuautla por San Fernando",
        "origin": "Providencia",
        "destination": "Tilcuautla por San Fernando",
        "source": "rutashidalgo",
        "sourceLabel": "Rutas Hidalgo",
        "sourceUrl": "https://rutashidalgo.com/",
        "routeType": "combi",
        "color": "#1b3ddc",
        "fare": "Por confirmar",
        "frequency": "N/A",
        "schedule": "Por confirmar",
        "status": "preliminary",
        "updatedAt": "2026-06-06",
        "featureIndex": 0
      },
      "geometry": {
        "coordinates": [
          [
            -98.71812678711508,
            20.061164491827043
          ],
          [
            -98.71742461409691,
            20.061001943672878
          ],
          [
            -98.7171949935364,
            20.06196785234883
          ],
          [
            -98.71784392120708,
            20.06212414769216
          ],
          [
            -98.71722622462424,
            20.064607314332193
          ],
          [
            -98.71748886180667,
            20.068159790080216
          ],
          [
            -98.72356962651256,
            20.06780784593252
          ],
          [
            -98.72729148133762,
            20.06762068052332
          ],
          [
            -98.72801694919497,
            20.067711328575072
          ],
          [
            -98.72813342753635,
            20.06746126620746
          ],
          [
            -98.73078830881242,
            20.06722138094264
          ],
          [
            -98.73047943159354,
            20.065964594690143
          ],
          [
            -98.73096995360747,
            20.065279422318554
          ],
          [
            -98.73008041913225,
            20.064721996915452
          ],
          [
            -98.72913714070712,
            20.063586721441965
          ],
          [
            -98.73026356849743,
            20.062764666593836
          ],
          [
            -98.73089546480315,
            20.06165035250467
          ],
          [
            -98.73098971360969,
            20.06124366649958
          ],
          [
            -98.73279217291403,
            20.057529133003854
          ],
          [
            -98.73294229791385,
            20.057470680927494
          ],
          [
            -98.73727839567808,
            20.048760366536243
          ],
          [
            -98.73741821742557,
            20.04868204410316
          ],
          [
            -98.7376185550236,
            20.048698698746875
          ],
          [
            -98.73776215985079,
            20.048785302861617
          ],
          [
            -98.73973958952341,
            20.052275260597625
          ],
          [
            -98.73985493227768,
            20.052591446566524
          ],
          [
            -98.74150172378975,
            20.055491651720118
          ],
          [
            -98.7417280286395,
            20.055370610885845
          ],
          [
            -98.74284699666984,
            20.054189882198045
          ],
          [
            -98.74286084136892,
            20.054173923636355
          ],
          [
            -98.74298577211698,
            20.053986153846722
          ],
          [
            -98.74331683859846,
            20.052759776880663
          ],
          [
            -98.74346675547692,
            20.052706966187657
          ],
          [
            -98.74675190998303,
            20.053596633265812
          ],
          [
            -98.74924261128899,
            20.05435025582358
          ],
          [
            -98.75131021516383,
            20.05487248878444
          ],
          [
            -98.75156007665944,
            20.0549957120391
          ],
          [
            -98.75272817915071,
            20.055336042429303
          ],
          [
            -98.75447721397303,
            20.05583480128317
          ],
          [
            -98.75935682041232,
            20.057303536551913
          ],
          [
            -98.76009391182365,
            20.05824823106059
          ],
          [
            -98.77188496599929,
            20.060804746993497
          ],
          [
            -98.77209110173322,
            20.060828217210286
          ],
          [
            -98.77327169729953,
            20.061080521812755
          ],
          [
            -98.77331691533831,
            20.061148789289263
          ],
          [
            -98.77404351328887,
            20.061310741472283
          ],
          [
            -98.77410508938617,
            20.06143798949776
          ],
          [
            -98.77400246255758,
            20.061788885035142
          ],
          [
            -98.77274633228164,
            20.063628138078954
          ],
          [
            -98.77259387152652,
            20.064024524669733
          ],
          [
            -98.77134180241096,
            20.065753953434765
          ],
          [
            -98.76994330822687,
            20.067944326031764
          ],
          [
            -98.7653186139013,
            20.07573819342744
          ],
          [
            -98.76420859485115,
            20.077758642661664
          ],
          [
            -98.76392113873852,
            20.078775059923046
          ],
          [
            -98.7627290413307,
            20.08009321624239
          ],
          [
            -98.76171575547053,
            20.081329620902736
          ],
          [
            -98.76127611671001,
            20.08217132273947
          ],
          [
            -98.7598641999218,
            20.085188707266525
          ],
          [
            -98.7624935739441,
            20.086054208133945
          ],
          [
            -98.76340666983103,
            20.08653856966805
          ],
          [
            -98.76341512442278,
            20.08683236199971
          ],
          [
            -98.76269648414139,
            20.08767403427933
          ],
          [
            -98.76202324498169,
            20.088507497145542
          ],
          [
            -98.76088187512295,
            20.090278160872202
          ],
          [
            -98.76080483337567,
            20.09058810514088
          ],
          [
            -98.76089783388274,
            20.091024811984312
          ],
          [
            -98.76143892774171,
            20.092350805303795
          ],
          [
            -98.76155729202333,
            20.092747807108168
          ],
          [
            -98.7614809482809,
            20.093202531416424
          ],
          [
            -98.76081303554894,
            20.094139448964995
          ],
          [
            -98.76059229952317,
            20.094539035707797
          ],
          [
            -98.76052466279064,
            20.09486457271312
          ],
          [
            -98.76053311738237,
            20.09584117966962
          ],
          [
            -98.76046548116355,
            20.096246112713573
          ],
          [
            -98.76001738781164,
            20.09664310464389
          ],
          [
            -98.75951856691034,
            20.096944817837596
          ],
          [
            -98.76273613346982,
            20.10001408032663
          ],
          [
            -98.76283758856863,
            20.100387243789157
          ],
          [
            -98.7630489533573,
            20.100760406362937
          ],
          [
            -98.76341250079355,
            20.10097477594951
          ],
          [
            -98.76386904873716,
            20.10110974924295
          ],
          [
            -98.76529787709708,
            20.102419955593717
          ],
          [
            -98.76556842402658,
            20.10251522999218
          ],
          [
            -98.77234000379023,
            20.10904964393579
          ],
          [
            -98.772475277255,
            20.109311637294013
          ],
          [
            -98.77909880937474,
            20.115513030954745
          ],
          [
            -98.78189404507735,
            20.117616813583055
          ],
          [
            -98.78815889741286,
            20.122594339777052
          ],
          [
            -98.78848692747458,
            20.12273480294361
          ],
          [
            -98.78942538713603,
            20.12284594197135
          ],
          [
            -98.79174194521946,
            20.122750679952162
          ],
          [
            -98.79494623541562,
            20.12301265036487
          ],
          [
            -98.79517450938712,
            20.123123789195134
          ],
          [
            -98.79748261287915,
            20.123417512866638
          ],
          [
            -98.79935109089323,
            20.123449269334827
          ],
          [
            -98.80006127658322,
            20.123481023205827
          ],
          [
            -98.80096591787877,
            20.12365566938007
          ],
          [
            -98.80159155765307,
            20.123885884494314
          ],
          [
            -98.80215801528658,
            20.124131976137903
          ],
          [
            -98.80498184886305,
            20.12607688034089
          ],
          [
            -98.80532002857677,
            20.126434108217552
          ],
          [
            -98.80659667190025,
            20.12733113546463
          ],
          [
            -98.80714622035063,
            20.127823307519094
          ],
          [
            -98.81132754308884,
            20.13091683258942
          ],
          [
            -98.81137827063823,
            20.131274046202222
          ],
          [
            -98.80992954690524,
            20.133179869486725
          ],
          [
            -98.80955754487694,
            20.13333069092755
          ],
          [
            -98.80893714147439,
            20.13417248454428
          ],
          [
            -98.80869196047882,
            20.134589275787917
          ],
          [
            -98.80855668701409,
            20.13508142498908
          ],
          [
            -98.8085144140564,
            20.13583552156402
          ],
          [
            -98.80843265604545,
            20.13962140105886
          ],
          [
            -98.80796765351042,
            20.1401611601363
          ],
          [
            -98.80726553889882,
            20.142571680132775
          ],
          [
            -98.80612416036614,
            20.145692229089562
          ]
        ],
        "type": "LineString"
      }
    },
    {
      "type": "Feature",
      "properties": {
        "routeId": "rutashidalgo-sanfernando-centro",
        "externalId": "SanFernando-Centro",
        "name": "San Fernando - Centro",
        "origin": "San Fernando",
        "destination": "Centro",
        "source": "rutashidalgo",
        "sourceLabel": "Rutas Hidalgo",
        "sourceUrl": "https://rutashidalgo.com/",
        "routeType": "combi",
        "color": "#ef792d",
        "fare": "Por confirmar",
        "frequency": "N/A",
        "schedule": "Por confirmar",
        "status": "preliminary",
        "updatedAt": "2026-06-06",
        "featureIndex": 0
      },
      "geometry": {
        "coordinates": [
          [
            -98.7323917,
            20.0486061
          ],
          [
            -98.735735,
            20.050089
          ],
          [
            -98.7362888,
            20.050383
          ],
          [
            -98.7360973,
            20.0508115
          ],
          [
            -98.7361582,
            20.050877
          ],
          [
            -98.7362336,
            20.050877
          ],
          [
            -98.7372552,
            20.0487777
          ],
          [
            -98.7373565,
            20.0486994
          ],
          [
            -98.7374626,
            20.048672
          ],
          [
            -98.737601,
            20.0486906
          ],
          [
            -98.7377491,
            20.0487751
          ],
          [
            -98.7396925,
            20.0522156
          ],
          [
            -98.7401764,
            20.0531374
          ],
          [
            -98.7426894,
            20.0575792
          ],
          [
            -98.7430135,
            20.0582
          ],
          [
            -98.7432302,
            20.0587408
          ],
          [
            -98.7434259,
            20.0593356
          ],
          [
            -98.7436779,
            20.0602824
          ],
          [
            -98.7438285,
            20.061244
          ],
          [
            -98.7457422,
            20.0887107
          ],
          [
            -98.745661,
            20.0889166
          ],
          [
            -98.7456005,
            20.0889999
          ],
          [
            -98.7455193,
            20.0890709
          ],
          [
            -98.745404,
            20.089117
          ],
          [
            -98.7452907,
            20.089133
          ],
          [
            -98.745132,
            20.0891046
          ],
          [
            -98.7450016,
            20.0890408
          ],
          [
            -98.7447976,
            20.0887746
          ],
          [
            -98.7446691,
            20.0885404
          ],
          [
            -98.7446671,
            20.0883606
          ],
          [
            -98.74473316121691,
            20.088190527810056
          ],
          [
            -98.7448352,
            20.0880909
          ],
          [
            -98.74497263782223,
            20.088040589031635
          ],
          [
            -98.7451073,
            20.0880199
          ],
          [
            -98.74523388502735,
            20.088020142822373
          ],
          [
            -98.7509537,
            20.090459
          ],
          [
            -98.7512211,
            20.0906318
          ],
          [
            -98.7537107,
            20.0916146
          ],
          [
            -98.754004,
            20.0917657
          ],
          [
            -98.7579044,
            20.0954302
          ],
          [
            -98.7590929,
            20.0965341
          ],
          [
            -98.7591625,
            20.096794
          ],
          [
            -98.7591711,
            20.0969587
          ],
          [
            -98.7590763,
            20.0971773
          ],
          [
            -98.75895030430894,
            20.09730244696061
          ],
          [
            -98.75789805861903,
            20.098140689634903
          ],
          [
            -98.756111,
            20.1004331
          ],
          [
            -98.754501,
            20.1031957
          ],
          [
            -98.7540856,
            20.1049236
          ],
          [
            -98.75365707051076,
            20.106508853735605
          ],
          [
            -98.7468970785469,
            20.10544173138838
          ],
          [
            -98.74724990675792,
            20.110890759749353
          ],
          [
            -98.7472999,
            20.1116912
          ],
          [
            -98.7472624,
            20.1120061
          ],
          [
            -98.7472079,
            20.1124439
          ],
          [
            -98.7471317,
            20.1128997
          ],
          [
            -98.7469718,
            20.1133404
          ],
          [
            -98.7469054,
            20.1133832
          ],
          [
            -98.746833,
            20.113401
          ],
          [
            -98.745058,
            20.1128965
          ],
          [
            -98.7448507,
            20.1126975
          ],
          [
            -98.7471451,
            20.1112926
          ],
          [
            -98.747177,
            20.1112547
          ],
          [
            -98.7471813,
            20.1112128
          ],
          [
            -98.7471728,
            20.1111091
          ],
          [
            -98.7471579,
            20.1109815
          ],
          [
            -98.7471239,
            20.1109456
          ],
          [
            -98.747064,
            20.1109512
          ],
          [
            -98.7452003,
            20.112097
          ],
          [
            -98.7450663,
            20.1122259
          ],
          [
            -98.7439916,
            20.1129044
          ],
          [
            -98.7430585,
            20.1133413
          ],
          [
            -98.7421124,
            20.1137418
          ],
          [
            -98.7396347,
            20.1148353
          ],
          [
            -98.7374185,
            20.1158033
          ],
          [
            -98.7363913,
            20.1164482
          ],
          [
            -98.7355246077046,
            20.11720589306097
          ],
          [
            -98.7349655,
            20.1178945
          ],
          [
            -98.7344584,
            20.1188267
          ],
          [
            -98.7341456,
            20.1195095
          ],
          [
            -98.7339506,
            20.1202199
          ],
          [
            -98.73374714970743,
            20.120987170325677
          ],
          [
            -98.73443350152391,
            20.121633814869995
          ],
          [
            -98.73487058113982,
            20.122254820258135
          ]
        ],
        "type": "LineString"
      }
    }
  ]
}
